provider,city,id,device_type,name,latitude,longitude,address
newmotion,Paris,2597696,TepcoCHAdeMO,Belib,48.871465,2.289894,"{'streetAndNumber': 'Avenue Victor Hugo 45', 'postalCode': '75016', 'city': 'Paris', 'country': 'FRA'}"
newmotion,Paris,2795768,Type2,Virta,48.897174,2.21943,"{'streetAndNumber': '3 Place Marcel Paul', 'city': 'Nanterre', 'country': 'FRA'}"
newmotion,Paris,2885707,Type2,Indigo,48.852062,2.279278,"{'streetAndNumber': 'Avenue du Président Kennedy', 'postalCode': '75016', 'city': 'Paris', 'country': 'FRA'}"
newmotion,Paris,2597694,TepcoCHAdeMO,Belib,48.86937,2.303269,"{'streetAndNumber': 'Rue Pierre Charron 58', 'postalCode': '75008', 'city': 'Paris', 'country': 'FRA'}"
newmotion,Paris,2563650,Type2,EV-Box,48.831059,2.289413,"{'streetAndNumber': 'Boulevard Lefebvre 36', 'postalCode': '75015', 'city': 'Paris', 'country': 'FRA'}"
newmotion,Paris,2867715,Domestic,Réseau SEY ma borne - Communauté Urbaine Grand Paris Seine & Oise,48.97535,2.033277,"{'streetAndNumber': ""Rue d'Andrésy 9"", 'postalCode': '78570', 'city': 'Chanteloup-les-Vignes', 'country': 'FRA'}"
newmotion,Paris,2570722,Domestic,Haute Vallée de Chevreuse,48.705833,1.986804,"{'streetAndNumber': 'Grande Rue  2', 'postalCode': '78720', 'city': 'Dampierre-en-Yvelines', 'country': 'FRA'}"
newmotion,Paris,2570673,Domestic,Freshmile Charge,48.9854,2.18857,"{'streetAndNumber': 'Passage de la Grande Cour 5', 'postalCode': '95370', 'city': 'Montigny-lès-Cormeilles', 'country': 'FRA'}"
newmotion,Paris,2597709,TepcoCHAdeMO,Belib,48.831448,2.320052,"{'streetAndNumber': 'Rue Didot 47', 'postalCode': '75014', 'city': 'Paris', 'country': 'FRA'}"
newmotion,Paris,2570691,Domestic,Freshmile Charge,49.0042,2.127,"{'streetAndNumber': 'Mail Jean-Baptiste Poquelin 5', 'postalCode': '95220', 'city': 'Herblay-sur-Seine', 'country': 'FRA'}"
newmotion,Paris,2597729,TepcoCHAdeMO,Belib,48.820007,2.365661,"{'streetAndNumber': 'Boulevard Masséna 107', 'postalCode': '75013', 'city': 'Paris', 'country': 'FRA'}"
newmotion,Paris,2750183,Type2,NewMotion,48.881543,2.471002,"{'streetAndNumber': 'DOMUS - Rue de Lisbonne 16', 'postalCode': '93562', 'city': 'Rosny-sous-Bois', 'country': 'FRA'}"
newmotion,Paris,2623861,Domestic,Communauté d’Agglomération Paris,48.842945,2.586017,"{'streetAndNumber': 'Boulevard Copernic 12', 'postalCode': '77420', 'city': 'Champs-sur-Marne', 'country': 'FRA'}"
newmotion,Paris,2597711,TepcoCHAdeMO,Belib,48.847931,2.309952,"{'streetAndNumber': 'Rue Pérignon 2', 'postalCode': '75007', 'city': 'Paris', 'country': 'FRA'}"
newmotion,Paris,2597695,TepcoCHAdeMO,Belib,48.826039,2.358146,"{'streetAndNumber': 'Rue de Tolbiac 145', 'postalCode': '75013', 'city': 'Paris', 'country': 'FRA'}"
newmotion,Paris,2623866,Domestic,Communauté d’Agglomération Paris,48.838829,2.585834,"{'streetAndNumber': 'Boulevard Copernic 16', 'postalCode': '77420', 'city': 'Champs-sur-Marne', 'country': 'FRA'}"
newmotion,Paris,2887776,Domestic,Communauté d'agglomération Paris-Saclay,48.706142,2.211503,"{'streetAndNumber': 'Place de la Gare de Lozère 3', 'postalCode': '91120', 'city': 'Palaiseau', 'country': 'FRA'}"
newmotion,Paris,2656608,Domestic,SMOYS - Syndicat Mixte Orge Yvette Seine,48.710804,2.450194,"{'streetAndNumber': 'Avenue de La Republique 2', 'postalCode': '91230', 'city': 'Montgeron', 'country': 'FRA'}"
newmotion,Paris,2770357,Domestic,Réseau SEY ma borne - Communauté Urbaine Grand Paris Seine & Oise,48.980431,2.005921,"{'streetAndNumber': 'Rue du Docteur Sobaux', 'postalCode': '78510', 'city': 'Triel-sur-Seine', 'country': 'FRA'}"
newmotion,Paris,2815388,Domestic,Effia Stationnement Vincennes,48.846932,2.447018,"{'streetAndNumber': 'Avenue Gabriel Péri 43', 'postalCode': '94300', 'city': 'Vincennes', 'country': 'FRA'}"
newmotion,Paris,2791655,Domestic,Freshmile Charge,48.7077,2.58381,"{'streetAndNumber': 'Rue du Noyer aux Perdrix', 'postalCode': '77170', 'city': 'Servon', 'country': 'FRA'}"
newmotion,Paris,2795693,Type2,Virta,48.8937,2.2263,"{'streetAndNumber': '132 Rue des Fontanots', 'city': 'Nanterre', 'country': 'FRA'}"
newmotion,Paris,2597726,TepcoCHAdeMO,Belib,48.85104,2.345493,"{'streetAndNumber': 'Rue Saint-Jacques 32', 'postalCode': '75005', 'city': 'Paris', 'country': 'FRA'}"
newmotion,Paris,2656647,Domestic,SMOYS - Syndicat Mixte Orge Yvette Seine,48.717175,2.367374,"{'streetAndNumber': 'Avenue du Général de Gaulle 189', 'postalCode': '91550', 'city': 'Paray-Vieille-Poste', 'country': 'FRA'}"
newmotion,Paris,2518870,TepcoCHAdeMO,Belib,48.891102,2.327102,"{'streetAndNumber': 'Avenue de Saint-Ouen 60', 'postalCode': '75018', 'city': 'Paris', 'country': 'FRA'}"
newmotion,Paris,2906733,Type2,NewMotion,48.882143,2.06826,"{'streetAndNumber': ""zone d'activité Du Pince Loup ."", 'postalCode': '78112', 'city': 'Fourqueux', 'country': 'FRA'}"
newmotion,Paris,2657434,Type2,NewMotion,48.837645,2.417817,"{'streetAndNumber': 'Avenue du Général de Gaulle 102', 'postalCode': '94160', 'city': 'Saint-Mandé', 'country': 'FRA'}"
newmotion,Paris,2790514,Domestic,Réseau SEY ma borne - Communauté Urbaine Grand Paris Seine & Oise,48.968903,2.076411,"{'streetAndNumber': 'Rue Jean Moulin', 'postalCode': '78260', 'city': 'Achères', 'country': 'FRA'}"
newmotion,Paris,2597732,TepcoCHAdeMO,Belib,48.841529,2.298576,"{'streetAndNumber': 'Rue Lecourbe 170', 'postalCode': '75015', 'city': 'Paris', 'country': 'FRA'}"
newmotion,Paris,2730564,Domestic,Ville de Paris - Candelabre,48.850738,2.31451,"{'streetAndNumber': 'Boulevard des Invalides', 'postalCode': '75007', 'city': 'Paris', 'country': 'FRA'}"
newmotion,Paris,2815343,Domestic,Freshmile Charge,48.9545,2.3083,"{'streetAndNumber': 'Avenue du 18 Juin 1940 1-3', 'postalCode': '93800', 'city': 'Épinay-sur-Seine', 'country': 'FRA'}"
newmotion,Paris,2656564,Domestic,SMOYS - Syndicat Mixte Orge Yvette Seine,48.694386,2.48292,"{'streetAndNumber': 'Rond-Point Pasteur 4', 'postalCode': '91330', 'city': 'Yerres', 'country': 'FRA'}"
newmotion,Paris,2885674,Type3,Indigo,48.835373,2.373305,"{'streetAndNumber': 'Rue Abel Gance', 'postalCode': '75013', 'city': 'Paris', 'country': 'FRA'}"
newmotion,Paris,2770353,Domestic,Réseau SEY ma borne - Communauté Urbaine Grand Paris Seine & Oise,48.980766,2.003006,"{'streetAndNumber': 'Rue du Pont', 'postalCode': '78510', 'city': 'Triel-sur-Seine', 'country': 'FRA'}"
newmotion,Paris,2906734,Type2,NewMotion,48.882121,2.068287,"{'streetAndNumber': ""zone d'activité Du Pince Loup ."", 'postalCode': '78112', 'city': 'Fourqueux', 'country': 'FRA'}"
newmotion,Paris,2751552,Domestic,Freshmile Charge,48.7436,2.35306,"{'streetAndNumber': 'Rue de Villeneuve 24', 'postalCode': '94150', 'city': 'Rungis', 'country': 'FRA'}"
newmotion,Paris,2623873,Domestic,Communauté d’Agglomération Paris,48.84378,2.617184,"{'streetAndNumber': 'Rue Jean Paul Sartre 8', 'postalCode': '77186', 'city': 'Noisiel', 'country': 'FRA'}"
newmotion,Paris,2762497,Domestic,Ze-Watt,48.98984,2.52242,"{'streetAndNumber': 'Rue des Buissons 30 E TOKYO', 'postalCode': '95700', 'city': 'Roissy-en-France', 'country': 'FRA'}"
newmotion,Paris,2885685,Type2,Indigo,48.824486,2.273721,"{'streetAndNumber': 'Rue du Général Leclerc', 'postalCode': '92130', 'city': 'Issy-les-Moulineaux', 'country': 'FRA'}"
newmotion,Paris,2885621,Type2,Indigo,48.82526,2.258818,"{'streetAndNumber': 'Quai de Stalingrad', 'postalCode': '92130', 'city': 'Issy-les-Moulineaux', 'country': 'FRA'}"
newmotion,Paris,2905667,Type2,Virta,48.9775,2.3927,"{'streetAndNumber': '1 Avenue General de Gaulle', 'city': 'Garges les Gonesses', 'country': 'FRA'}"
newmotion,Paris,2570698,Domestic,Freshmile Charge,49.0186,2.24591,"{'streetAndNumber': 'Wendlingen Am Nacker 16', 'postalCode': '95320', 'city': 'Saint-Leu-la-Forêt', 'country': 'FRA'}"
newmotion,Paris,2478378,Domestic,Effia,48.732783,2.288926,"{'streetAndNumber': 'Rue du Théâtre', 'postalCode': '91300', 'city': 'Massy', 'country': 'FRA'}"
newmotion,Paris,2623909,Domestic,Reseau Alize Liberte - Ville de Montrouge,48.810812,2.315737,"{'streetAndNumber': 'Rue Molière 9', 'postalCode': '92120', 'city': 'Montrouge', 'country': 'FRA'}"
newmotion,Paris,2867750,Domestic,Réseau SEY ma borne,48.8589,2.02278,"{'streetAndNumber': 'Avenue des Platanes 30', 'postalCode': '78860', 'city': 'Saint-Nom-la-Bretèche', 'country': 'FRA'}"
newmotion,Paris,2541310,Type2,NewMotion,48.843327,2.419143,"{'streetAndNumber': 'Place Charles Digeon 10', 'postalCode': '94160', 'city': 'Saint-Mandé', 'country': 'FRA'}"
newmotion,Paris,2597699,TepcoCHAdeMO,Belib,48.841742,2.375639,"{'streetAndNumber': 'Rue Villiot 20', 'postalCode': '75012', 'city': 'Paris', 'country': 'FRA'}"
newmotion,Paris,2597693,TepcoCHAdeMO,Belib,48.874134,2.405196,"{'streetAndNumber': 'Avenue Gambetta 227', 'postalCode': '75020', 'city': 'Paris', 'country': 'FRA'}"
newmotion,Paris,2623911,Domestic,Reseau Alize Liberte - Ville de Montrouge,48.812477,2.307365,"{'streetAndNumber': 'Rue Roger Salengro 16', 'postalCode': '92120', 'city': 'Montrouge', 'country': 'FRA'}"
newmotion,Paris,2518858,TepcoCHAdeMO,Belib,48.82312,2.367798,"{'streetAndNumber': 'Rue Regnault 118', 'postalCode': '75013', 'city': 'Paris', 'country': 'FRA'}"
newmotion,Paris,2554390,Domestic,Freshmile Charge,48.9795,2.29046,"{'streetAndNumber': 'Villa Forestier', 'postalCode': '95600', 'city': 'Eaubonne', 'country': 'FRA'}"
newmotion,Paris,2570670,Domestic,Freshmile Charge,48.9911,2.2229,"{'streetAndNumber': 'Avenue des Marais 25', 'postalCode': '95130', 'city': 'Franconville', 'country': 'FRA'}"
newmotion,Paris,2887851,Domestic,Indigo,48.816977,2.359396,"{'streetAndNumber': ""Avenue de la Porte d'Italie"", 'postalCode': '75013', 'city': 'Paris', 'country': 'FRA'}"
newmotion,Paris,2597698,TepcoCHAdeMO,Belib,48.875854,2.309542,"{'streetAndNumber': 'Rue Louis Murat 2', 'postalCode': '75008', 'city': 'Paris', 'country': 'FRA'}"
newmotion,Paris,2656581,Domestic,SMOYS - Syndicat Mixte Orge Yvette Seine,48.709064,2.432306,"{'streetAndNumber': 'Rue René Gauthier 34', 'postalCode': '91270', 'city': 'Vigneux-sur-Seine', 'country': 'FRA'}"
newmotion,Paris,2597722,TepcoCHAdeMO,Belib,48.852126,2.331346,"{'streetAndNumber': 'Rue de Rennes 66', 'postalCode': '75006', 'city': 'Paris', 'country': 'FRA'}"
newmotion,Paris,2478000,Domestic,Eco Charge 77,48.965435,2.671611,"{'streetAndNumber': ""Rue D'Olympie"", 'postalCode': '77410', 'city': 'Gressy', 'country': 'FRA'}"
newmotion,Paris,2885639,Type2,Indigo,48.874149,2.29919,"{'streetAndNumber': 'Avenue de Friedland', 'postalCode': '75008', 'city': 'Paris', 'country': 'FRA'}"
newmotion,Paris,2518853,TepcoCHAdeMO,Belib,48.863766,2.41177,"{'streetAndNumber': 'Rue Louis Lumière 104', 'postalCode': '75020', 'city': 'Paris', 'country': 'FRA'}"
newmotion,Paris,2569358,Type2,NewMotion,48.974933,2.328379,"{'streetAndNumber': 'rue Charles de Gaulle 36', 'postalCode': '95170', 'city': 'Deuil-La Barre', 'country': 'FRA'}"
newmotion,Paris,2887791,Domestic,Communauté d'agglomération Paris-Saclay,48.73402,2.20761,"{'streetAndNumber': 'Grande Rue du 8 Mai 1945 10', 'postalCode': '91430', 'city': 'Vauhallan', 'country': 'FRA'}"
newmotion,Paris,2518855,TepcoCHAdeMO,Belib,48.8595093,2.3401287000000366,"{'streetAndNumber': 'Place du Louvre 3', 'postalCode': '75001', 'city': 'Paris', 'country': 'FRA'}"
newmotion,Paris,2882551,Type2,NewMotion,49.009531,2.565957,"{'streetAndNumber': 'Rue de Paris 45', 'postalCode': '93290', 'city': 'Tremblay-en-France', 'country': 'FRA'}"
newmotion,Paris,2882557,Type2,NewMotion,49.009531,2.565957,"{'streetAndNumber': 'Rue de Paris 45', 'postalCode': '93290', 'city': 'Tremblay-en-France', 'country': 'FRA'}"
newmotion,Paris,2882556,Type2,NewMotion,49.009531,2.565957,"{'streetAndNumber': 'Rue de Paris 45', 'postalCode': '93290', 'city': 'Tremblay-en-France', 'country': 'FRA'}"
newmotion,Paris,2882555,Type2,NewMotion,49.009531,2.565957,"{'streetAndNumber': 'Rue de Paris 45', 'postalCode': '93290', 'city': 'Tremblay-en-France', 'country': 'FRA'}"
newmotion,Paris,2882548,Type2,NewMotion,49.009531,2.565957,"{'streetAndNumber': 'Rue de Paris 45', 'postalCode': '93290', 'city': 'Tremblay-en-France', 'country': 'FRA'}"
newmotion,Paris,2882550,Type2,NewMotion,49.009531,2.565957,"{'streetAndNumber': 'Rue de Paris 45', 'postalCode': '93290', 'city': 'Tremblay-en-France', 'country': 'FRA'}"
newmotion,Paris,2882552,Type2,NewMotion,49.009531,2.565957,"{'streetAndNumber': 'Rue de Paris 45', 'postalCode': '93290', 'city': 'Tremblay-en-France', 'country': 'FRA'}"
newmotion,Paris,2882549,Type2,NewMotion,49.009531,2.565957,"{'streetAndNumber': 'Rue de Paris 45', 'postalCode': '93290', 'city': 'Tremblay-en-France', 'country': 'FRA'}"
newmotion,Paris,2882547,Type2,NewMotion,49.009531,2.565957,"{'streetAndNumber': 'Rue de Paris 45', 'postalCode': '93290', 'city': 'Tremblay-en-France', 'country': 'FRA'}"
newmotion,Paris,2597717,TepcoCHAdeMO,Belib,48.864719,2.359043,"{'streetAndNumber': 'Rue Réaumur 5', 'postalCode': '75003', 'city': 'Paris', 'country': 'FRA'}"
newmotion,Paris,2623865,Domestic,Communauté d’Agglomération Paris,48.839853,2.654609,"{'streetAndNumber': 'Rue Léon Blum 2', 'postalCode': '77200', 'city': 'Torcy', 'country': 'FRA'}"
newmotion,Paris,2518864,TepcoCHAdeMO,Belib,48.897671,2.352758,"{'streetAndNumber': 'Rue des Poissonniers 150', 'postalCode': '75018', 'city': 'Paris', 'country': 'FRA'}"
newmotion,Paris,2623877,Domestic,Communauté d’Agglomération Paris,48.833193,2.638477,"{'streetAndNumber': 'Rue des Campanules 1', 'postalCode': '77185', 'city': 'Lognes', 'country': 'FRA'}"
newmotion,Paris,2616493,Type2,NewMotion,48.911474,2.309709,"{'streetAndNumber': ""Allées de l'Europe 19"", 'postalCode': '92110', 'city': 'Clichy', 'country': 'FRA'}"
newmotion,Paris,2616567,Type2,NewMotion,48.911474,2.309709,"{'streetAndNumber': ""Allées de l'Europe 19"", 'postalCode': '92110', 'city': 'Clichy', 'country': 'FRA'}"
newmotion,Paris,2616566,Type2,NewMotion,48.911474,2.309709,"{'streetAndNumber': ""Allées de l'Europe 19"", 'postalCode': '92110', 'city': 'Clichy', 'country': 'FRA'}"
newmotion,Paris,2597745,TepcoCHAdeMO,Belib,48.852665,2.31368,"{'streetAndNumber': 'Avenue de Villars 9', 'postalCode': '75007', 'city': 'Paris', 'country': 'FRA'}"
newmotion,Paris,2885680,Type2,Indigo,48.847019,2.34247,"{'streetAndNumber': 'Rue Soufflot', 'postalCode': '75005', 'city': 'Paris', 'country': 'FRA'}"
newmotion,Paris,2554386,Domestic,Freshmile Charge,48.98,2.27439,"{'streetAndNumber': 'Rue des Bussys 22', 'postalCode': '95600', 'city': 'Eaubonne', 'country': 'FRA'}"
newmotion,Paris,2861774,Domestic,Concessionnaires Renault,48.748721,2.509139,"{'streetAndNumber': 'Avenue du Général Leclerc 51', 'postalCode': '94470', 'city': 'Boissy-Saint-Léger', 'country': 'FRA'}"
newmotion,Paris,2790558,TepcoCHAdeMO,Corri-Door,48.999802,2.522628,"{'streetAndNumber': 'Rue des 2 Cèdres', 'postalCode': '95700', 'city': 'Roissy-en-France', 'country': 'FRA'}"
newmotion,Paris,2554367,Domestic,Freshmile Charge,49.016,2.1775,"{'streetAndNumber': 'Chaussée Jules César 218', 'postalCode': '95250', 'city': 'Beauchamp', 'country': 'FRA'}"
newmotion,Paris,2795740,Type2,Virta,48.897151,2.219482,"{'streetAndNumber': '3 Place Marcel PauL', 'city': 'Nanterre', 'country': 'FRA'}"
newmotion,Paris,2887749,Domestic,Communauté d'agglomération Paris-Saclay,48.701092,2.134818,"{'streetAndNumber': 'Allée du Parc 10', 'postalCode': '91190', 'city': 'Gif-sur-Yvette', 'country': 'FRA'}"
newmotion,Paris,2885713,Type2,Indigo,48.86978,2.30402,"{'streetAndNumber': 'Rue Pierre Charron', 'postalCode': '75008', 'city': 'Paris', 'country': 'FRA'}"
newmotion,Paris,2518851,TepcoCHAdeMO,Belib,48.875465,2.360103,"{'streetAndNumber': 'Rue du Faubourg Saint Martin 150', 'postalCode': '75010', 'city': 'Paris', 'country': 'FRA'}"
newmotion,Paris,2484559,Type2,EV-Box,48.831022,2.289539,"{'streetAndNumber': 'Boulevard Lefebvre 36', 'postalCode': '75015', 'city': 'Paris', 'country': 'FRA'}"
newmotion,Paris,2570694,Domestic,Freshmile Charge,48.9842,2.2277,"{'streetAndNumber': 'Rue du Général Leclerc 106', 'postalCode': '95130', 'city': 'Franconville', 'country': 'FRA'}"
newmotion,Paris,2867763,Domestic,Réseau SEY ma borne,48.842338,2.067053,"{'streetAndNumber': 'Rue André le Bourblanc 11', 'postalCode': '78590', 'city': 'Noisy-le-Roi', 'country': 'FRA'}"
newmotion,Paris,2868644,Type2,Virta,48.715057,2.57269,"{'streetAndNumber': 'Avenue de la butte Gayen', 'city': 'Santeny', 'country': 'FRA'}"
newmotion,Paris,2518871,TepcoCHAdeMO,Belib,48.88842,2.388149,"{'streetAndNumber': 'Rue Adolphe Mille 9', 'postalCode': '75019', 'city': 'Paris', 'country': 'FRA'}"
newmotion,Paris,2887768,Domestic,Communauté d'agglomération Paris-Saclay,48.707249,2.237123,"{'streetAndNumber': 'Boulevard Nicolas Samson 39', 'postalCode': '91120', 'city': 'Palaiseau', 'country': 'FRA'}"
newmotion,Paris,2626105,Domestic,Communauté d’Agglomération Paris,48.827036,2.648352,"{'streetAndNumber': 'Avenue de l’Étang', 'postalCode': '77183', 'city': 'Croissy-Beaubourg', 'country': 'FRA'}"
newmotion,Paris,2795849,Type2,Virta,48.8977,2.2227,"{'streetAndNumber': '7 Boulevard des Bouvets', 'city': 'Nanterre', 'country': 'FRA'}"
newmotion,Paris,2570715,Domestic,Haute Vallée de Chevreuse,48.715224,2.081791,"{'streetAndNumber': ""Rue du Château d'Eau  19"", 'postalCode': '78470', 'city': 'Saint-Rémy-lès-Chevreuse', 'country': 'FRA'}"
newmotion,Paris,2790582,Domestic,Communauté d’Agglomération Paris,48.840556,2.589339,"{'streetAndNumber': 'Avenue Blaise Pascal 6', 'postalCode': '77420', 'city': 'Champs-sur-Marne', 'country': 'FRA'}"
newmotion,Paris,2620695,Type2,EV-Box,48.756812,1.982182,"{'streetAndNumber': 'Avenue des Frères Lumière 50', 'postalCode': '78190', 'city': 'Trappes', 'country': 'FRA'}"
newmotion,Paris,2554406,Domestic,Freshmile Charge,49.0134,2.19591,"{'streetAndNumber': 'Avenue Roger Salengro 49', 'postalCode': '95250', 'city': 'Beauchamp', 'country': 'FRA'}"
newmotion,Paris,2795517,Type2,Marché International de Rungis,48.758701,2.357973,"{'streetAndNumber': 'Rue de Nîmes 94150 Rungis', 'city': 'Rungis', 'country': 'FRA'}"
newmotion,Paris,2597705,TepcoCHAdeMO,Belib,48.86154,2.31159,"{'streetAndNumber': 'Rue Fabert 22', 'postalCode': '75007', 'city': 'Paris', 'country': 'FRA'}"
newmotion,Paris,2790564,TepcoCHAdeMO,Corri-Door,49.009323,2.537369,"{'streetAndNumber': ""Rue de l'Or 1"", 'postalCode': '95700', 'city': 'Roissy-en-France', 'country': 'FRA'}"
newmotion,Paris,2885675,Type3,Indigo,48.9701,2.3085,"{'streetAndNumber': 'Rue de Malleville', 'postalCode': '95880', 'city': 'Enghien-les-Bains', 'country': 'FRA'}"
newmotion,Paris,2721400,Domestic,Freshmile Charge,48.8019,2.13031,"{'streetAndNumber': 'Avenue de Paris 4', 'postalCode': '78000', 'city': 'Versailles', 'country': 'FRA'}"
newmotion,Paris,2709266,TepcoCHAdeMO,Belib,48.84998,2.36192,"{'streetAndNumber': 'Quai Henri IV 4', 'postalCode': '75004', 'city': 'Paris', 'country': 'FRA'}"
newmotion,Paris,2762490,Domestic,Bornes Solutions,48.777098,2.242489,"{'streetAndNumber': 'Avenue Descartes 15', 'postalCode': '92350', 'city': 'Le Plessis-Robinson', 'country': 'FRA'}"
newmotion,Paris,2656579,Domestic,SMOYS - Syndicat Mixte Orge Yvette Seine,48.712387,2.363134,"{'streetAndNumber': 'Avenue Victor Hugo', 'postalCode': '91550', 'city': 'Paray-Vieille-Poste', 'country': 'FRA'}"
newmotion,Paris,2656603,Domestic,SMOYS - Syndicat Mixte Orge Yvette Seine,48.703182,2.320485,"{'streetAndNumber': 'Avenue Charles de Gaulle 5', 'postalCode': '91380', 'city': 'Chilly-Mazarin', 'country': 'FRA'}"
newmotion,Paris,2657654,Domestic,Freshmile Charge,48.9351,2.25396,"{'streetAndNumber': 'Boulevard de Valmy 165', 'postalCode': '92700', 'city': 'Colombes', 'country': 'FRA'}"
newmotion,Paris,2523103,Domestic,Freshmile Charge,48.9734,2.20301,"{'streetAndNumber': 'Rue des Carrières', 'postalCode': '95240', 'city': 'Cormeilles-en-Parisis', 'country': 'FRA'}"
newmotion,Paris,2867717,Domestic,Réseau SEY ma borne,48.862292,2.112804,"{'streetAndNumber': 'Rue Du Professeur Guyon', 'postalCode': '78430', 'city': 'Louveciennes', 'country': 'FRA'}"
newmotion,Paris,2815494,Type2,Electric 55 Charging,48.921675,2.445813,"{'streetAndNumber': 'Rue Marcelin Berthelot 2', 'postalCode': '93700', 'city': 'Drancy', 'country': 'FRA'}"
newmotion,Paris,2597725,TepcoCHAdeMO,Belib,48.879654,2.302442,"{'streetAndNumber': 'Rue de Courcelles 83', 'postalCode': '75017', 'city': 'Paris', 'country': 'FRA'}"
newmotion,Paris,2554419,Domestic,Freshmile Charge,48.9761,2.2562,"{'streetAndNumber': 'Rue du Lieutenant Georges Keiser', 'postalCode': '95110', 'city': 'Sannois', 'country': 'FRA'}"
newmotion,Paris,2657679,Domestic,Freshmile Charge,48.9769,2.1991,"{'streetAndNumber': 'Avenue Emelie 9', 'postalCode': '95240', 'city': 'Cormeilles-en-Parisis', 'country': 'FRA'}"
newmotion,Paris,2770346,Domestic,Réseau SEY ma borne - Communauté Urbaine Grand Paris Seine & Oise,48.979145,1.974997,"{'streetAndNumber': 'D154', 'postalCode': '78480', 'city': 'Verneuil-sur-Seine', 'country': 'FRA'}"
newmotion,Paris,2708775,Type2,NewMotion,48.774219,2.487435,"{'streetAndNumber': ""Rue d'Estienne d'Orves 7"", 'postalCode': '94380', 'city': 'Bonneuil-sur-Marne', 'country': 'FRA'}"
newmotion,Paris,2523096,Domestic,Freshmile Charge,48.9686,2.24037,"{'streetAndNumber': 'Allée de Cormeilles', 'postalCode': '95110', 'city': 'Sannois', 'country': 'FRA'}"
newmotion,Paris,2795512,Type2,Marché International de Rungis,48.75694,2.3652,"{'streetAndNumber': 'Rue du Gers 94150 Rungis', 'city': 'Rungis', 'country': 'FRA'}"
newmotion,Paris,2813749,Type2,Virta,48.750517,2.533775,"{'streetAndNumber': '3 Avenue Charles Lindberg', 'city': 'RUNGIS', 'country': 'FRA'}"
newmotion,Paris,2813746,Type2,Virta,48.750517,2.533775,"{'streetAndNumber': '3 avenue Lindberg', 'city': 'Rungis', 'country': 'FRA'}"
newmotion,Paris,2554401,Domestic,Freshmile Charge,48.9843,2.2361,"{'streetAndNumber': '3ème Avenue 117', 'postalCode': '95130', 'city': 'Franconville', 'country': 'FRA'}"
newmotion,Paris,2770405,Domestic,Réseau SEY ma borne,48.874525,1.974039,"{'streetAndNumber': 'Grande Rue 39', 'postalCode': '78810', 'city': 'Feucherolles', 'country': 'FRA'}"
newmotion,Paris,2518875,TepcoCHAdeMO,Belib,48.834705,2.305529,"{'streetAndNumber': 'Rue de Vouillé 25', 'postalCode': '75015', 'city': 'Paris', 'country': 'FRA'}"
newmotion,Paris,2518849,TepcoCHAdeMO,Belib,48.89061,2.35423,"{'streetAndNumber': 'Rue Ordener 27', 'postalCode': '75018', 'city': 'Paris', 'country': 'FRA'}"
newmotion,Paris,2885654,Type2,Indigo,48.851196,2.333565,"{'streetAndNumber': 'Place Saint-Sulpice', 'postalCode': '75006', 'city': 'Paris', 'country': 'FRA'}"
newmotion,Paris,2554368,Domestic,Freshmile Charge,49.0271,2.2126,"{'streetAndNumber': 'Place des 7 Fontaines 8', 'postalCode': '95150', 'city': 'Taverny', 'country': 'FRA'}"
newmotion,Paris,2885706,Type2,Indigo,48.8909,2.24699,"{'streetAndNumber': 'Liaison Médiane', 'postalCode': '92400', 'city': 'Courbevoie', 'country': 'FRA'}"
newmotion,Paris,2885688,Type2,Indigo,48.8909,2.24699,"{'streetAndNumber': 'Liaison Médiane', 'postalCode': '92400', 'city': 'Courbevoie', 'country': 'FRA'}"
newmotion,Paris,2815492,Type2,Electric 55 Charging,48.838587,2.18696,"{'streetAndNumber': 'Boulevard du Général de Gaulle', 'postalCode': '92380', 'city': 'Garches', 'country': 'FRA'}"
newmotion,Paris,2533712,Type2,NewMotion,48.726832,2.570839,"{'streetAndNumber': 'Route de Marolles 1', 'postalCode': '94440', 'city': 'Santeny', 'country': 'FRA'}"
newmotion,Paris,2887757,Domestic,Communauté d'agglomération Paris-Saclay,48.697315,2.181948,"{'streetAndNumber': 'Boulevard Dubreuil 41', 'postalCode': '91400', 'city': 'Orsay', 'country': 'FRA'}"
newmotion,Paris,2601892,Type2,NewMotion,48.81768,2.260285,"{'streetAndNumber': ""POUR RESIDENTS UNIQUEMENT - Rue d'Erevan 42"", 'postalCode': '92130', 'city': 'Issy-les-Moulineaux', 'country': 'FRA'}"
newmotion,Paris,2570713,Domestic,Haute Vallée de Chevreuse,48.705908,2.045842,"{'streetAndNumber': 'Rue Charles Michels 10', 'postalCode': '78460', 'city': 'Chevreuse', 'country': 'FRA'}"
newmotion,Paris,2570724,Domestic,Haute Vallée de Chevreuse,48.698864,2.066867,"{'streetAndNumber': 'Rue de la Digue  2', 'postalCode': '78470', 'city': 'Saint-Rémy-lès-Chevreuse', 'country': 'FRA'}"
newmotion,Paris,2815392,Domestic,Effia Stationnement Vincennes,48.850669,2.440834,"{'streetAndNumber': 'Rue Diderot 48', 'postalCode': '94300', 'city': 'Vincennes', 'country': 'FRA'}"
newmotion,Paris,2597707,TepcoCHAdeMO,Belib,48.861016,2.28308,"{'streetAndNumber': 'Avenue Paul Doumer 24', 'postalCode': '75016', 'city': 'Paris', 'country': 'FRA'}"
newmotion,Paris,2619426,Type2,EV-Box,48.8905571,2.2639456,"{'streetAndNumber': 'Boulevard de la Saussaye 13', 'postalCode': '92200', 'city': 'Neuilly-sur-Seine', 'country': 'FRA'}"
newmotion,Paris,2887780,Domestic,Communauté d'agglomération Paris-Saclay,48.737225,2.295414,"{'streetAndNumber': 'Allée de la Sologne 4', 'postalCode': '91300', 'city': 'Massy', 'country': 'FRA'}"
newmotion,Paris,2887769,Domestic,Communauté d'agglomération Paris-Saclay,48.730156,2.259031,"{'streetAndNumber': 'Place Saint Fiacre 3', 'postalCode': '91300', 'city': 'Massy', 'country': 'FRA'}"
newmotion,Paris,2597712,TepcoCHAdeMO,Belib,48.857552,2.30437,"{'streetAndNumber': 'Avenue Bosquet', 'postalCode': '75007', 'city': 'Paris', 'country': 'FRA'}"
newmotion,Paris,2887764,Domestic,Communauté d'agglomération Paris-Saclay,48.698582,2.187464,"{'streetAndNumber': 'Rue Archange 1', 'postalCode': '91400', 'city': 'Orsay', 'country': 'FRA'}"
newmotion,Paris,2815370,Domestic,Freshmile Charge,48.7617,2.672,"{'streetAndNumber': 'Avenue du Général de Gaulle 45', 'postalCode': '77330', 'city': 'Ozoir-la-Ferrière', 'country': 'FRA'}"
newmotion,Paris,2518868,TepcoCHAdeMO,Belib,48.863602,2.27153,"{'streetAndNumber': 'Avenue Henri Martin 101', 'postalCode': '75016', 'city': 'Paris', 'country': 'FRA'}"
newmotion,Paris,2626654,TepcoCHAdeMO,Belib,48.835499,2.34965,"{'streetAndNumber': 'Rue Berbier du Mets 24', 'postalCode': '75013', 'city': 'Paris', 'country': 'FRA'}"
newmotion,Paris,2563649,Type2,EV-Box,48.756901,1.982147,"{'streetAndNumber': 'Avenue des Fr\x9dres Lumi\x9dre 50', 'postalCode': '78190', 'city': 'Trappes', 'country': 'FRA'}"
newmotion,Paris,2791674,Domestic,Réseau SEY ma borne,48.873256,2.104106,"{'streetAndNumber': ""Rue de l'Égalité"", 'postalCode': '78560', 'city': 'Le Port-Marly', 'country': 'FRA'}"
newmotion,Paris,2795718,Type2,Virta,48.897151,2.219483,"{'streetAndNumber': '3 Place Marcel Paul', 'city': 'Nanterre', 'country': 'FRA'}"
newmotion,Paris,2885641,Type2,Indigo,48.787258,2.228398,"{'streetAndNumber': 'Rue Bernard Delpuech', 'postalCode': '92360', 'city': 'Meudon', 'country': 'FRA'}"
newmotion,Paris,2657673,Domestic,Freshmile Charge,48.8973,2.37929,"{'streetAndNumber': 'Rue de Cambrai 11', 'postalCode': '75019', 'city': 'Paris', 'country': 'FRA'}"
newmotion,Paris,2569357,Type2,NewMotion,48.974933,2.328421,"{'streetAndNumber': 'rue Charles de Gaulle 36', 'postalCode': '95170', 'city': 'Deuil-La Barre', 'country': 'FRA'}"
newmotion,Paris,2795635,Type2,Virta,48.897151,2.219481,"{'streetAndNumber': '3 Place Marcel Paul', 'city': 'Nanterre', 'country': 'FRA'}"
newmotion,Paris,2795597,Type2,Virta,48.897151,2.219481,"{'streetAndNumber': '3 Place Marcel Paul', 'city': 'Nanterre', 'country': 'FRA'}"
newmotion,Paris,2795832,Type2,Virta,48.8938,2.2261,"{'streetAndNumber': '132 RUE DES 3 FONTANOTS', 'city': 'Nanterre', 'country': 'FRA'}"
newmotion,Paris,2049728,Type2,NewMotion,48.79947,2.124731,"{'streetAndNumber': 'Rue du Général Leclerc 4', 'postalCode': '78000', 'city': 'Versailles', 'country': 'FRA'}"
newmotion,Paris,2049730,Type2,NewMotion,48.79947,2.124731,"{'streetAndNumber': 'Rue du Général Leclerc 4', 'postalCode': '78000', 'city': 'Versailles', 'country': 'FRA'}"
newmotion,Paris,2056125,Type2,NewMotion,48.79947,2.124731,"{'streetAndNumber': 'Rue du Général Leclerc 4', 'postalCode': '78000', 'city': 'Versailles', 'country': 'FRA'}"
newmotion,Paris,2056123,Type2,NewMotion,48.79947,2.124731,"{'streetAndNumber': 'Rue du Général Leclerc 4', 'postalCode': '78000', 'city': 'Versailles', 'country': 'FRA'}"
newmotion,Paris,2056124,Type2,NewMotion,48.79947,2.124731,"{'streetAndNumber': 'Rue du Général Leclerc 4', 'postalCode': '78000', 'city': 'Versailles', 'country': 'FRA'}"
newmotion,Paris,2056122,Type2,NewMotion,48.79947,2.124731,"{'streetAndNumber': 'Rue du Général Leclerc 4', 'postalCode': '78000', 'city': 'Versailles', 'country': 'FRA'}"
newmotion,Paris,2887788,Domestic,Communauté d'agglomération Paris-Saclay,48.703136,2.191479,"{'streetAndNumber': 'Rue Charles de Gaulle 22', 'postalCode': '91400', 'city': 'Orsay', 'country': 'FRA'}"
newmotion,Paris,2893332,Domestic,Concessionnaires PSA,48.72118,2.284184,"{'streetAndNumber': 'Avenue du Maréchal Juin 13', 'postalCode': '91300', 'city': 'Massy', 'country': 'FRA'}"
newmotion,Paris,2762502,Domestic,Ze-Watt,48.992803,2.520178,"{'streetAndNumber': 'Rue des Buissons 30 AFRICA LODGE', 'postalCode': '95700', 'city': 'Roissy-en-France', 'country': 'FRA'}"
newmotion,Paris,2597706,TepcoCHAdeMO,Belib,48.845715,2.345032,"{'streetAndNumber': 'Place du Panthéon 17', 'postalCode': '75005', 'city': 'Paris', 'country': 'FRA'}"
newmotion,Paris,2554380,Domestic,Freshmile Charge,48.9914,2.1658,"{'streetAndNumber': 'Place de la Halle 4', 'postalCode': '95220', 'city': 'Herblay-sur-Seine', 'country': 'FRA'}"
newmotion,Paris,2785156,Type2,NewMotion,48.850484,2.185144,"{'streetAndNumber': 'Rue du 19 Janvier 60', 'postalCode': '92380', 'city': 'Garches', 'country': 'FRA'}"
newmotion,Paris,2785020,Type2,NewMotion,48.850484,2.185144,"{'streetAndNumber': 'Rue du 19 Janvier 60', 'postalCode': '92380', 'city': 'Garches', 'country': 'FRA'}"
newmotion,Paris,2867713,Domestic,Réseau SEY ma borne - Communauté Urbaine Grand Paris Seine & Oise,48.955661,2.072183,"{'streetAndNumber': 'Rue de Saint-Germain 51', 'postalCode': '78260', 'city': 'Achères', 'country': 'FRA'}"
newmotion,Paris,2492936,Domestic,Effia,48.980586,2.268412,"{'streetAndNumber': 'Rue Raoul Dautry 1', 'postalCode': '95120', 'city': 'Ermont', 'country': 'FRA'}"
newmotion,Paris,2623927,Domestic,Driveco - LM,48.9324,2.3212,"{'streetAndNumber': 'Avenue du Vieux Chemin de Saint-Denis 121', 'postalCode': '92230', 'city': 'Gennevilliers', 'country': 'FRA'}"
newmotion,Paris,2554378,Domestic,Freshmile Charge,48.9658,2.20925,"{'streetAndNumber': ""Rue du Noyer de l'Image 42"", 'postalCode': '95240', 'city': 'Cormeilles-en-Parisis', 'country': 'FRA'}"
newmotion,Paris,2607509,Domestic,Freshmile Charge,48.8993,2.1211,"{'streetAndNumber': 'Rue Alexandre Dumas 15', 'postalCode': '78110', 'city': 'Le Vésinet', 'country': 'FRA'}"
newmotion,Paris,2868665,Type2,Virta,48.963089,2.059341,"{'streetAndNumber': 'Rue des Communes', 'city': 'Achères', 'country': 'FRA'}"
newmotion,Paris,2597742,TepcoCHAdeMO,Belib,48.857124,2.327753,"{'streetAndNumber': 'Rue du Bac 35', 'postalCode': '75007', 'city': 'Paris', 'country': 'FRA'}"
newmotion,Paris,2887782,Domestic,Communauté d'agglomération Paris-Saclay,48.714756,2.246326,"{'streetAndNumber': ""Rue d'Auvergne 2"", 'postalCode': '91120', 'city': 'Palaiseau', 'country': 'FRA'}"
newmotion,Paris,2597734,TepcoCHAdeMO,Belib,48.889731,2.33891,"{'streetAndNumber': 'Rue Caulaincourt 103', 'postalCode': '75018', 'city': 'Paris', 'country': 'FRA'}"
newmotion,Paris,2885666,Type2,Indigo,48.851669,2.324816,"{'streetAndNumber': 'Rue Velpeau', 'postalCode': '75007', 'city': 'Paris', 'country': 'FRA'}"
newmotion,Paris,2815391,Domestic,Effia Stationnement Vincennes,48.843918,2.428681,"{'streetAndNumber': 'Avenue du Petit Parc 21', 'postalCode': '94300', 'city': 'Vincennes', 'country': 'FRA'}"
newmotion,Paris,2623862,Domestic,Communauté d’Agglomération Paris,48.827606,2.659255,"{'streetAndNumber': 'Rue de Paris 30', 'postalCode': '77183', 'city': 'Croissy-Beaubourg', 'country': 'FRA'}"
newmotion,Paris,2597723,TepcoCHAdeMO,Belib,48.847485,2.401736,"{'streetAndNumber': 'Cours de Vincennes 30', 'postalCode': '75012', 'city': 'Paris', 'country': 'FRA'}"
newmotion,Paris,2657655,Type2,Freshmile Charge,48.8652,2.33303,"{'streetAndNumber': 'Rue des Pyramides 15', 'postalCode': '75001', 'city': 'Paris', 'country': 'FRA'}"
newmotion,Paris,2554410,Domestic,Freshmile Charge,49.0218,2.15733,"{'streetAndNumber': 'Rue des Jardins 14', 'postalCode': '95480', 'city': 'Pierrelaye', 'country': 'FRA'}"
newmotion,Paris,2770354,Domestic,Réseau SEY ma borne - Communauté Urbaine Grand Paris Seine & Oise,48.978645,2.058029,"{'streetAndNumber': 'Boulevard Noël Marc', 'postalCode': '78570', 'city': 'Andrésy', 'country': 'FRA'}"
newmotion,Paris,2790583,Domestic,Communauté d’Agglomération Paris,48.855515,2.591277,"{'streetAndNumber': 'Avenue Jean Jaurès 84', 'postalCode': '77420', 'city': 'Champs-sur-Marne', 'country': 'FRA'}"
newmotion,Paris,2554399,Domestic,Freshmile Charge,49.0115,2.20446,"{'streetAndNumber': 'Avenue de Boissy 13', 'postalCode': '95150', 'city': 'Taverny', 'country': 'FRA'}"
newmotion,Paris,2795596,Type2,Virta,48.832631,2.286814,"{'streetAndNumber': 'Porte de Versailles - Pavillon 3 – Allée E – stand 70', 'city': 'Paris', 'country': 'FRA'}"
newmotion,Paris,2597735,TepcoCHAdeMO,Belib,48.824388,2.336857,"{'streetAndNumber': 'Avenue Reille 46', 'postalCode': '75014', 'city': 'Paris', 'country': 'FRA'}"
newmotion,Paris,2570721,Domestic,Haute Vallée de Chevreuse,48.71434,2.062613,"{'streetAndNumber': 'Route de Milon 46', 'postalCode': '78460', 'city': 'Chevreuse', 'country': 'FRA'}"
newmotion,Paris,2885653,Type2,Indigo,48.887016,2.275019,"{'streetAndNumber': ""Boulevard d'Inkermann"", 'postalCode': '92200', 'city': 'Neuilly-sur-Seine', 'country': 'FRA'}"
newmotion,Paris,2597741,TepcoCHAdeMO,Belib,48.880698,2.321369,"{'streetAndNumber': 'Rue de Rome 72', 'postalCode': '75008', 'city': 'Paris', 'country': 'FRA'}"
newmotion,Paris,2868650,Type2,Virta,48.815918,2.533537,"{'streetAndNumber': 'ZAC des Nations - Rue de Bernaü', 'city': 'Champigny-sur-Marne', 'country': 'FRA'}"
newmotion,Paris,2868646,Type2,Virta,48.815918,2.533537,"{'streetAndNumber': 'ZAC des Nations - Rue de Bernaü', 'city': 'Champigny-sur-Marne', 'country': 'FRA'}"
newmotion,Paris,2554421,Domestic,Freshmile Charge,49.0097,2.19769,"{'streetAndNumber': 'Avenue du Maréchal Joffre 4', 'postalCode': '95250', 'city': 'Beauchamp', 'country': 'FRA'}"
newmotion,Paris,2554362,Domestic,Freshmile Charge,48.9686,2.2661,"{'streetAndNumber': 'Boulevard Maurice Berteaux 20', 'postalCode': '95110', 'city': 'Sannois', 'country': 'FRA'}"
newmotion,Paris,2518860,TepcoCHAdeMO,Belib,48.865097,2.36554,"{'streetAndNumber': 'Boulevard du Temple 27', 'postalCode': '75011', 'city': 'Paris', 'country': 'FRA'}"
newmotion,Paris,2885710,Type3,Indigo,48.897598,2.09506,"{'streetAndNumber': 'Place Charles de Gaulle', 'postalCode': '78100', 'city': 'Saint-Germain-en-Laye', 'country': 'FRA'}"
newmotion,Paris,2554405,Domestic,Freshmile Charge,49.0158,2.2424,"{'streetAndNumber': 'Place de la Gare 11', 'postalCode': '95320', 'city': 'Saint-Leu-la-Forêt', 'country': 'FRA'}"
newmotion,Paris,2597702,TepcoCHAdeMO,Belib,48.828454,2.300643,"{'streetAndNumber': 'Rue Antonin Mercié 2', 'postalCode': '75015', 'city': 'Paris', 'country': 'FRA'}"
newmotion,Paris,2815487,Type2,Electric 55 Charging,48.782472,2.190194,"{'streetAndNumber': 'Avenue du Capitaine Tarron', 'postalCode': '78140', 'city': 'Vélizy-Villacoublay', 'country': 'FRA'}"
newmotion,Paris,2741120,Type2,NewMotion,48.948725,2.625339,"{'streetAndNumber': 'Avenue Jean Monnet 2', 'postalCode': '77270', 'city': 'Villeparisis', 'country': 'FRA'}"
newmotion,Paris,2762529,Type2,Electric 55 Charging,48.806742,2.151875,"{'streetAndNumber': 'Rue de la Bonne Aventure', 'postalCode': '78000', 'city': 'Versailles', 'country': 'FRA'}"
newmotion,Paris,2884932,Type2,Virta,48.705586,2.313747,"{'streetAndNumber': 'Avenue Mazarin', 'city': 'Chilly Mazarin', 'country': 'FRA'}"
newmotion,Paris,2885670,Type2,Indigo,48.824623,2.236651,"{'streetAndNumber': 'Quai Georges Gorse', 'postalCode': '92100', 'city': 'Boulogne-Billancourt', 'country': 'FRA'}"
newmotion,Paris,2554414,Domestic,Freshmile Charge,49.0264,2.2249,"{'streetAndNumber': 'D928 186', 'postalCode': '95150', 'city': 'Taverny', 'country': 'FRA'}"
newmotion,Paris,2570683,Domestic,Freshmile Charge,49.0169,2.12663,"{'streetAndNumber': 'Mail des Ombragés 9', 'postalCode': '95220', 'city': 'Herblay-sur-Seine', 'country': 'FRA'}"
newmotion,Paris,2885648,Type2,Indigo,48.804871,2.131798,"{'streetAndNumber': 'Avenue de Saint-Cloud', 'postalCode': '78000', 'city': 'Versailles', 'country': 'FRA'}"
newmotion,Paris,2791695,Domestic,Réseau SEY ma borne,48.939625,2.121739,"{'streetAndNumber': 'Rue des Grands Champs 12', 'postalCode': '78600', 'city': 'Le Mesnil-le-Roi', 'country': 'FRA'}"
newmotion,Paris,2623871,Type3,Communauté d’Agglomération Paris,48.82531,2.62595,"{'streetAndNumber': 'Allée Lech Walesa', 'postalCode': '77185', 'city': 'Lognes', 'country': 'FRA'}"
newmotion,Paris,2541314,Type2,NewMotion,48.843655,2.420046,"{'streetAndNumber': ""Chaussée de l'Étang 18"", 'postalCode': '94160', 'city': 'Saint-Mandé', 'country': 'FRA'}"
newmotion,Paris,2541312,Type2,NewMotion,48.842753,2.418635,"{'streetAndNumber': 'Place Charles Digeon 6', 'postalCode': '94160', 'city': 'Saint-Mandé', 'country': 'FRA'}"
newmotion,Paris,2885667,Type2,Indigo,48.861721,2.330334,"{'streetAndNumber': 'Avenue du Général Lemonnier 1', 'postalCode': '75001', 'city': 'Paris', 'country': 'FRA'}"
newmotion,Paris,2867764,Domestic,Réseau SEY ma borne,48.843539,2.064111,"{'streetAndNumber': 'Avenue Charles de Gaulle 3', 'postalCode': '78590', 'city': 'Noisy-le-Roi', 'country': 'FRA'}"
newmotion,Paris,2554381,Domestic,Freshmile Charge,48.9784,2.2423,"{'streetAndNumber': 'Allée Jean Moulin 3', 'postalCode': '95110', 'city': 'Sannois', 'country': 'FRA'}"
newmotion,Paris,2657666,Domestic,Freshmile Charge,49.0203,2.16317,"{'streetAndNumber': 'Chaussée Jules César 14', 'postalCode': '95480', 'city': 'Pierrelaye', 'country': 'FRA'}"
newmotion,Paris,2656635,Domestic,SMOYS - Syndicat Mixte Orge Yvette Seine,48.69627,2.349825,"{'streetAndNumber': 'Avenue des Marronniers 91', 'postalCode': '91600', 'city': 'Savigny-sur-Orge', 'country': 'FRA'}"
newmotion,Paris,2815486,Type2,Electric 55 Charging,48.816785,2.466818,"{'streetAndNumber': 'Place du 8 Mai 1945', 'postalCode': '94340', 'city': 'Joinville-le-Pont', 'country': 'FRA'}"
newmotion,Paris,2487310,Type2,Freshmile Charge,48.8302,2.2879,"{'streetAndNumber': 'Parc expo Pavillon 2', 'postalCode': '92170', 'city': 'Vanves', 'country': 'FRA'}"
newmotion,Paris,2885660,Type2,Indigo,48.697166,2.164253,"{'streetAndNumber': 'Rue Charles de Gaulle', 'postalCode': '91440', 'city': 'Bures-sur-Yvette', 'country': 'FRA'}"
newmotion,Paris,2815393,Domestic,Effia Stationnement Vincennes,48.850174,2.447148,"{'streetAndNumber': 'Rue Diderot 118', 'postalCode': '94300', 'city': 'Vincennes', 'country': 'FRA'}"
newmotion,Paris,2623910,Domestic,Reseau Alize Liberte - Ville de Montrouge,48.817506,2.317718,"{'streetAndNumber': 'Rue Sylvine Candas 6', 'postalCode': '92120', 'city': 'Montrouge', 'country': 'FRA'}"
newmotion,Paris,2597738,TepcoCHAdeMO,Belib,48.846295,2.374877,"{'streetAndNumber': 'Rue Abel 2', 'postalCode': '75012', 'city': 'Paris', 'country': 'FRA'}"
newmotion,Paris,2563861,Type2,NewMotion,48.830034,2.603401,"{'streetAndNumber': ""Avenue de l'Europe 61"", 'postalCode': '77184', 'city': 'Émerainville', 'country': 'FRA'}"
newmotion,Paris,2554423,Domestic,Freshmile Charge,48.995,2.26679,"{'streetAndNumber': 'Rue des Pendants 2', 'postalCode': '95600', 'city': 'Eaubonne', 'country': 'FRA'}"
newmotion,Paris,2597713,TepcoCHAdeMO,Belib,48.878965,2.293606,"{'streetAndNumber': 'Avenue des Ternes 36', 'postalCode': '75017', 'city': 'Paris', 'country': 'FRA'}"
newmotion,Paris,2762539,Type2,Electric 55 Charging,48.79661,2.136693,"{'streetAndNumber': 'Rue des Chantiers 12', 'postalCode': '78000', 'city': 'Versailles', 'country': 'FRA'}"
newmotion,Paris,2554404,Domestic,Freshmile Charge,49.0254,2.221,"{'streetAndNumber': 'Rue Lady Ashburton 8', 'postalCode': '95150', 'city': 'Taverny', 'country': 'FRA'}"
newmotion,Paris,2541318,Type2,NewMotion,48.846975,2.416858,"{'streetAndNumber': 'Avenue Gallieni 182', 'postalCode': '94160', 'city': 'Saint-Mandé', 'country': 'FRA'}"
newmotion,Paris,2597718,TepcoCHAdeMO,Belib,48.83086,2.325895,"{'streetAndNumber': 'Avenue du Maine 173', 'postalCode': '75014', 'city': 'Paris', 'country': 'FRA'}"
newmotion,Paris,2885642,Type3,Indigo,48.896,2.38724,"{'streetAndNumber': 'Avenue Jean Jaurès', 'postalCode': '75019', 'city': 'Paris', 'country': 'FRA'}"
newmotion,Paris,2731257,Type2,Freshmile Charge,48.7976,2.45113,"{'streetAndNumber': 'Rue Gustave Eiffel 1', 'postalCode': '94000', 'city': 'Créteil', 'country': 'FRA'}"
newmotion,Paris,2815366,Domestic,Freshmile Charge,48.8513,2.21687,"{'streetAndNumber': 'Rue du Mont Valérien 2', 'postalCode': '92210', 'city': 'Saint-Cloud', 'country': 'FRA'}"
newmotion,Paris,2721394,Domestic,Freshmile Charge,48.8416,2.29951,"{'streetAndNumber': 'Rue Lecourbe 143', 'postalCode': '75015', 'city': 'Paris', 'country': 'FRA'}"
newmotion,Paris,2924481,Domestic,Freshmile Charge,48.8429,2.20713,"{'streetAndNumber': 'Boulevard de la République 4', 'postalCode': '92210', 'city': 'Saint-Cloud', 'country': 'FRA'}"
newmotion,Paris,2657645,Domestic,Freshmile Charge,48.8507,2.34863,"{'streetAndNumber': 'Rue Lagrange 19', 'postalCode': '75005', 'city': 'Paris', 'country': 'FRA'}"
newmotion,Paris,2885630,Type2,Indigo,48.876682,2.250798,"{'streetAndNumber': 'Place de Bagatelle', 'postalCode': '92200', 'city': 'Neuilly-sur-Seine', 'country': 'FRA'}"
newmotion,Paris,2815348,Domestic,Freshmile Charge,48.8785,2.33274,"{'streetAndNumber': 'Rue Jean-Baptiste Pigalle 10', 'postalCode': '75009', 'city': 'Paris', 'country': 'FRA'}"
newmotion,Paris,2881459,Type2,NewMotion,48.786537,2.05466,"{'streetAndNumber': 'Rue Gustave Eiffel 1', 'postalCode': '78280', 'city': 'Guyancourt', 'country': 'FRA'}"
newmotion,Paris,2881696,Type2,NewMotion,48.786537,2.05466,"{'streetAndNumber': 'Rue Gustave Eiffel 1', 'postalCode': '78280', 'city': 'Guyancourt', 'country': 'FRA'}"
newmotion,Paris,2881460,Type2,NewMotion,48.786537,2.05466,"{'streetAndNumber': 'Rue Gustave Eiffel 1', 'postalCode': '78280', 'city': 'Guyancourt', 'country': 'FRA'}"
newmotion,Paris,2879393,Type2,NewMotion,48.786537,2.05466,"{'streetAndNumber': 'Rue Gustave Eiffel 1', 'postalCode': '78280', 'city': 'Guyancourt', 'country': 'FRA'}"
newmotion,Paris,2881752,Type2,NewMotion,48.786537,2.05466,"{'streetAndNumber': 'Rue Gustave Eiffel 1', 'postalCode': '78280', 'city': 'Guyancourt', 'country': 'FRA'}"
newmotion,Paris,2879396,Type2,NewMotion,48.786537,2.05466,"{'streetAndNumber': 'Rue Gustave Eiffel 1', 'postalCode': '78280', 'city': 'Guyancourt', 'country': 'FRA'}"
newmotion,Paris,2879395,Type2,NewMotion,48.786537,2.05466,"{'streetAndNumber': 'Rue Gustave Eiffel 1', 'postalCode': '78280', 'city': 'Guyancourt', 'country': 'FRA'}"
newmotion,Paris,2879394,Type2,NewMotion,48.786537,2.05466,"{'streetAndNumber': 'Rue Gustave Eiffel 1', 'postalCode': '78280', 'city': 'Guyancourt', 'country': 'FRA'}"
newmotion,Paris,2523086,Domestic,Freshmile Charge,48.994465,2.2036470000000463,"{'streetAndNumber': 'Place Eugène Delacroix 9', 'postalCode': '95370', 'city': 'Montigny-lès-Cormeilles', 'country': 'FRA'}"
newmotion,Paris,2810916,Type2,NewMotion,48.772412,1.991818,"{'streetAndNumber': ""Avenue de l'Armée Leclerc 25"", 'postalCode': '78190', 'city': 'Trappes', 'country': 'FRA'}"
newmotion,Paris,2570705,Domestic,Freshmile Charge,48.9701,2.2633,"{'streetAndNumber': 'Place Salvador Allende 4', 'postalCode': '95110', 'city': 'Sannois', 'country': 'FRA'}"
newmotion,Paris,2713326,Type2,EV-Box,48.702915,2.06942,"{'streetAndNumber': 'Rue de la République 30', 'postalCode': '78470', 'city': 'Saint-Rémy-lès-Chevreuse', 'country': 'FRA'}"
newmotion,Paris,2645530,Type2,EV-Box,48.702915,2.06942,"{'streetAndNumber': 'Rue de la République 30', 'postalCode': '78470', 'city': 'Saint-Rémy-lès-Chevreuse', 'country': 'FRA'}"
newmotion,Paris,2623876,Domestic,Communauté d’Agglomération Paris,48.850049,2.651714,"{'streetAndNumber': 'Allée Gaston Defferre', 'postalCode': '77200', 'city': 'Torcy', 'country': 'FRA'}"
newmotion,Paris,2597747,TepcoCHAdeMO,Belib,48.86424,2.397724,"{'streetAndNumber': 'Avenue du Père Lachaise 13', 'postalCode': '75020', 'city': 'Paris', 'country': 'FRA'}"
newmotion,Paris,2657651,Domestic,Freshmile Charge,48.7443,2.35927,"{'streetAndNumber': 'Rue des Solets 11', 'postalCode': '94150', 'city': 'Rungis', 'country': 'FRA'}"
newmotion,Paris,2624744,Type2,EV-Box,49.025255,2.232968,"{'streetAndNumber': 'Rue Gabriel Péri 16', 'postalCode': '95150', 'city': 'Taverny', 'country': 'FRA'}"
newmotion,Paris,2861773,Domestic,Concessionnaires Renault,48.742041,2.486263,"{'streetAndNumber': 'Avenue de Valenton 18', 'postalCode': '94450', 'city': 'Limeil-Brévannes', 'country': 'FRA'}"
newmotion,Paris,2885698,Type2,Indigo,48.838879,2.371629,"{'streetAndNumber': ""Quai d'Austerlitz"", 'postalCode': '75013', 'city': 'Paris', 'country': 'FRA'}"
newmotion,Paris,2597731,TepcoCHAdeMO,Belib,48.858952,2.379874,"{'streetAndNumber': 'Avenue Parmentier 4', 'postalCode': '75011', 'city': 'Paris', 'country': 'FRA'}"
newmotion,Paris,2570674,Domestic,Freshmile Charge,48.9621,2.1813,"{'streetAndNumber': 'Avenue des Lilas 38', 'postalCode': '95530', 'city': 'La Frette-sur-Seine', 'country': 'FRA'}"
newmotion,Paris,2569731,Type2,NewMotion,48.844154,2.416887,"{'streetAndNumber': 'Avenue Gallieni 182', 'postalCode': '94160', 'city': 'Saint-Mandé', 'country': 'FRA'}"
newmotion,Paris,2623867,Domestic,Communauté d’Agglomération Paris,48.844248,2.622686,"{'streetAndNumber': 'Cours du Buisson', 'postalCode': '77186', 'city': 'Noisiel', 'country': 'FRA'}"
newmotion,Paris,2909957,Type2,Total,48.891907,2.144751,"{'streetAndNumber': 'Avenue du Maréchal Foch', 'postalCode': '78400', 'city': 'Chatou', 'country': 'FRA'}"
newmotion,Paris,2815386,Domestic,Effia Stationnement Vincennes,48.846188,2.437105,"{'streetAndNumber': 'Rue Lejemptel 2', 'postalCode': '94300', 'city': 'Vincennes', 'country': 'FRA'}"
newmotion,Paris,2885622,Type2,Indigo,48.829369,2.3787,"{'streetAndNumber': 'Rue Thomas Mann', 'postalCode': '75013', 'city': 'Paris', 'country': 'FRA'}"
newmotion,Paris,2597703,TepcoCHAdeMO,Belib,48.832893,2.363025,"{'streetAndNumber': 'Boulevard Vincent-Auriol 137', 'postalCode': '75013', 'city': 'Paris', 'country': 'FRA'}"
newmotion,Paris,2619420,Type2,EV-Box,48.890557,2.263946,"{'streetAndNumber': 'Boulevard de la Saussaye 13', 'postalCode': '92200', 'city': 'Neuilly-sur-Seine', 'country': 'FRA'}"
newmotion,Paris,2619427,Type2,EV-Box,48.890557,2.263946,"{'streetAndNumber': 'Boulevard de la Saussaye 13', 'postalCode': '92200', 'city': 'Neuilly-sur-Seine', 'country': 'FRA'}"
newmotion,Paris,2656642,Domestic,SMOYS - Syndicat Mixte Orge Yvette Seine,48.743687,2.434506,"{'streetAndNumber': 'Avenue du Maréchal de Turenne 19', 'postalCode': '94290', 'city': 'Villeneuve-le-Roi', 'country': 'FRA'}"
newmotion,Paris,2656628,Domestic,SMOYS - Syndicat Mixte Orge Yvette Seine,48.743687,2.434506,"{'streetAndNumber': 'Avenue du Maréchal de Turenne 15', 'postalCode': '94290', 'city': 'Villeneuve-le-Roi', 'country': 'FRA'}"
newmotion,Paris,2478375,Domestic,Effia,48.726526,2.262207,"{'streetAndNumber': 'Avenue Carnot 38', 'postalCode': '91300', 'city': 'Massy', 'country': 'FRA'}"
newmotion,Paris,2741117,Type2,NewMotion,48.948751,2.625408,"{'streetAndNumber': 'Avenue Jean Monnet 2', 'postalCode': '77270', 'city': 'Villeparisis', 'country': 'FRA'}"
newmotion,Paris,2887748,Domestic,Communauté d'agglomération Paris-Saclay,48.696736,2.29254,"{'streetAndNumber': 'Boulevard de Bretagne 6', 'postalCode': '91160', 'city': 'Longjumeau', 'country': 'FRA'}"
newmotion,Paris,2758123,Type2,NewMotion,48.798029,2.265408,"{'streetAndNumber': 'Rue de Bièvres 9', 'postalCode': '92140', 'city': 'Clamart', 'country': 'FRA'}"
newmotion,Paris,2758127,Type2,NewMotion,48.798029,2.265408,"{'streetAndNumber': 'Rue de Bièvres 9', 'postalCode': '92140', 'city': 'Clamart', 'country': 'FRA'}"
newmotion,Paris,2597708,TepcoCHAdeMO,Belib,48.845265,2.411238,"{'streetAndNumber': 'Rue Changarnier 4', 'postalCode': '75012', 'city': 'Paris', 'country': 'FRA'}"
newmotion,Paris,2815364,Domestic,Freshmile Charge,48.8443,2.65466,"{'streetAndNumber': 'Avenue de Lingenfeld 15', 'postalCode': '77200', 'city': 'Torcy', 'country': 'FRA'}"
newmotion,Paris,2795510,Type2,Marché International de Rungis,48.76166,2.36111,"{'streetAndNumber': '1 Rue de la Tour 94550 Chevilly-Larue,', 'city': 'Rungis', 'country': 'FRA'}"
newmotion,Paris,2518867,TepcoCHAdeMO,Belib,48.84824,2.339865,"{'streetAndNumber': 'Rue de Medicis 11', 'postalCode': '75006', 'city': 'Paris', 'country': 'FRA'}"
newmotion,Paris,2478024,Domestic,Eco Charge 77,48.945904,2.687649,"{'streetAndNumber': 'Allée André Benoist', 'postalCode': '77410', 'city': 'Claye-Souilly', 'country': 'FRA'}"
newmotion,Paris,2597701,TepcoCHAdeMO,Belib,48.833603,2.389173,"{'streetAndNumber': 'Rue Baron le Roy 53', 'postalCode': '75012', 'city': 'Paris', 'country': 'FRA'}"
newmotion,Paris,2657641,Domestic,Freshmile Charge,48.7481,2.35377,"{'streetAndNumber': 'Rue Saarinen 20', 'postalCode': '94150', 'city': 'Rungis', 'country': 'FRA'}"
newmotion,Paris,2656609,Domestic,SMOYS - Syndicat Mixte Orge Yvette Seine,48.724464,2.420903,"{'streetAndNumber': 'Rue du Docteur Bernard Léger', 'postalCode': '94480', 'city': 'Ablon-sur-Seine', 'country': 'FRA'}"
newmotion,Paris,2518848,TepcoCHAdeMO,Belib,48.851025,2.326367,"{'streetAndNumber': 'Rue de Sevres 20', 'postalCode': '75006', 'city': 'Paris', 'country': 'FRA'}"
newmotion,Paris,2795514,Type2,Marché International de Rungis,48.7611,2.3491,"{'streetAndNumber': 'Avenue du Lyonnais', 'city': 'Rungis', 'country': 'FRA'}"
newmotion,Paris,2554379,Domestic,Freshmile Charge,48.9915,2.176,"{'streetAndNumber': 'Chemin de Montigny 7', 'postalCode': '95220', 'city': 'Herblay-sur-Seine', 'country': 'FRA'}"
newmotion,Paris,2721410,Domestic,Freshmile Charge,48.8547,2.22045,"{'streetAndNumber': 'Boulevard Senard 54', 'postalCode': '92210', 'city': 'Saint-Cloud', 'country': 'FRA'}"
newmotion,Paris,2570719,Domestic,Haute Vallée de Chevreuse,48.70488,2.037731,"{'streetAndNumber': 'Rue de Rambouillet  47', 'postalCode': '78460', 'city': 'Chevreuse', 'country': 'FRA'}"
newmotion,Paris,2887784,Domestic,Communauté d'agglomération Paris-Saclay,48.697381,2.233518,"{'streetAndNumber': 'Rue Jacques Brel', 'postalCode': '91140', 'city': 'Villebon-sur-Yvette', 'country': 'FRA'}"
newmotion,Paris,2554415,Domestic,Freshmile Charge,48.9852,2.26332,"{'streetAndNumber': 'Rue Maurice Berteaux 56', 'postalCode': '95120', 'city': 'Ermont', 'country': 'FRA'}"
newmotion,Paris,2657447,Type2,NewMotion,48.846899,2.416759,"{'streetAndNumber': 'Avenue Gallieni 182', 'postalCode': '94160', 'city': 'Saint-Mandé', 'country': 'FRA'}"
newmotion,Paris,2570677,Domestic,Freshmile Charge,49.007,2.1977,"{'streetAndNumber': 'Rue John Lennon 3', 'postalCode': '95370', 'city': 'Montigny-lès-Cormeilles', 'country': 'FRA'}"
newmotion,Paris,2597744,TepcoCHAdeMO,Belib,48.841663,2.286931,"{'streetAndNumber': 'Rue de la Convention 99', 'postalCode': '75015', 'city': 'Paris', 'country': 'FRA'}"
newmotion,Paris,2597736,TepcoCHAdeMO,Belib,48.865501,2.315463,"{'streetAndNumber': 'Avenue Dutuit 3', 'postalCode': '75008', 'city': 'Paris', 'country': 'FRA'}"
newmotion,Paris,2478382,Domestic,Effia,48.838108,2.383436,"{'streetAndNumber': 'Boulevard de Bercy 48 bis', 'postalCode': '75012', 'city': 'Paris', 'country': 'FRA'}"
newmotion,Paris,2815489,Type2,Electric 55 Charging,48.827423,2.26765,"{'streetAndNumber': 'Boulevard Gallieni 27', 'postalCode': '92130', 'city': 'Issy-les-Moulineaux', 'country': 'FRA'}"
newmotion,Paris,2554398,Domestic,Freshmile Charge,48.9917,2.27736,"{'streetAndNumber': 'Rue Cristino Garcia 4', 'postalCode': '95600', 'city': 'Eaubonne', 'country': 'FRA'}"
newmotion,Paris,2795660,Type2,Virta,48.8976,2.2227,"{'streetAndNumber': '7 Boulevard des Bouvets', 'city': 'Nanterre', 'country': 'FRA'}"
newmotion,Paris,2795700,Type2,Virta,48.8976,2.2227,"{'streetAndNumber': '7 Boulevard des Bouvets', 'city': 'Nanterre', 'country': 'FRA'}"
newmotion,Paris,2795830,Type2,Virta,48.8976,2.2227,"{'streetAndNumber': '7 Boulevard des bouvets', 'city': 'Nanterre', 'country': 'FRA'}"
newmotion,Paris,2795687,Type2,Virta,48.8976,2.2227,"{'streetAndNumber': '7 Boulevard des Bouvets', 'city': 'Nanterre', 'country': 'FRA'}"
newmotion,Paris,2795619,Unspecified,Virta,48.8976,2.2227,"{'streetAndNumber': '7 Boulevard des Bouvets', 'city': 'Nanterre', 'country': 'FRA'}"
newmotion,Paris,2554422,Domestic,Freshmile Charge,48.9913,2.28509,"{'streetAndNumber': 'Rue de Soisy 16', 'postalCode': '95600', 'city': 'Eaubonne', 'country': 'FRA'}"
newmotion,Paris,2554412,Domestic,Freshmile Charge,49.0173,2.2108,"{'streetAndNumber': 'Square Georges Vallerey 5', 'postalCode': '95150', 'city': 'Taverny', 'country': 'FRA'}"
newmotion,Paris,2478057,Domestic,Eco Charge 77,48.924843,2.718575,"{'streetAndNumber': 'Allée de Louche', 'postalCode': '77410', 'city': 'Annet-sur-Marne', 'country': 'FRA'}"
newmotion,Paris,2815357,Domestic,Freshmile Charge,48.8597,2.21206,"{'streetAndNumber': 'Allée des Gymnases', 'postalCode': '92210', 'city': 'Saint-Cloud', 'country': 'FRA'}"
newmotion,Paris,2815495,Type2,Electric 55 Charging,48.822749,2.249493,"{'streetAndNumber': 'Boulevard des Îles', 'postalCode': '92130', 'city': 'Issy-les-Moulineaux', 'country': 'FRA'}"
newmotion,Paris,2623863,Domestic,Communauté d’Agglomération Paris,48.850669,2.622673,"{'streetAndNumber': 'Rue de la Mare Blanche 2', 'postalCode': '77186', 'city': 'Noisiel', 'country': 'FRA'}"
newmotion,Paris,2887778,Domestic,Communauté d'agglomération Paris-Saclay,48.701866,2.294186,"{'streetAndNumber': 'Place de la Gare', 'postalCode': '91160', 'city': 'Longjumeau', 'country': 'FRA'}"
newmotion,Paris,2620694,Type2,EV-Box,48.757908,1.981504,"{'streetAndNumber': 'Avenue des Fr\x9dres Lumi\x9dre 50', 'postalCode': '78190', 'city': 'Trappes', 'country': 'FRA'}"
newmotion,Paris,2570699,Domestic,Freshmile Charge,49.0197,2.24271,"{'streetAndNumber': 'Place Maréchal Foch 10', 'postalCode': '95320', 'city': 'Saint-Leu-la-Forêt', 'country': 'FRA'}"
newmotion,Paris,2518877,TepcoCHAdeMO,Belib,48.872192,2.377671,"{'streetAndNumber': 'Rue de Belleville 6', 'postalCode': '75020', 'city': 'Paris', 'country': 'FRA'}"
newmotion,Paris,2762507,Domestic,Ze-Watt,48.99065,2.521516,"{'streetAndNumber': 'Rue des Buissons 30 C Nordic Chic', 'postalCode': '95700', 'city': 'Roissy-en-France', 'country': 'FRA'}"
newmotion,Paris,2906735,Type2,NewMotion,48.882163,2.068269,"{'streetAndNumber': ""zone d'activité Du Pince Loup ."", 'postalCode': '78112', 'city': 'Fourqueux', 'country': 'FRA'}"
newmotion,Paris,2523090,Domestic,Freshmile Charge,48.9747,2.17747,"{'streetAndNumber': 'Quai de Seine', 'postalCode': '95530', 'city': 'La Frette-sur-Seine', 'country': 'FRA'}"
newmotion,Paris,2656634,Domestic,SMOYS - Syndicat Mixte Orge Yvette Seine,48.736504,2.421105,"{'streetAndNumber': 'Avenue Paul Vaillant Couturier 21', 'postalCode': '94290', 'city': 'Villeneuve-le-Roi', 'country': 'FRA'}"
newmotion,Paris,2656585,Domestic,SMOYS - Syndicat Mixte Orge Yvette Seine,48.714264,2.476976,"{'streetAndNumber': 'Rue Jules Ferry 9', 'postalCode': '91330', 'city': 'Yerres', 'country': 'FRA'}"
newmotion,Paris,2721421,Domestic,Freshmile Charge,48.8568,2.21134,"{'streetAndNumber': ' Boulevard de la République 193', 'postalCode': '92210', 'city': 'Saint-Cloud', 'country': 'FRA'}"
newmotion,Paris,2887754,Domestic,Communauté d'agglomération Paris-Saclay,48.711727,2.243571,"{'streetAndNumber': 'Rue du Dr Morère 4', 'postalCode': '91120', 'city': 'Palaiseau', 'country': 'FRA'}"
newmotion,Paris,2868660,Type2,Virta,48.730206,2.240311,"{'streetAndNumber': 'Rue du Pileu', 'city': 'Massy', 'country': 'FRA'}"
newmotion,Paris,2554408,Domestic,Freshmile Charge,49.0004,2.14247,"{'streetAndNumber': 'Rue François Truffaut 1', 'postalCode': '95220', 'city': 'Herblay-sur-Seine', 'country': 'FRA'}"
newmotion,Paris,2518850,TepcoCHAdeMO,Belib,48.846653,2.258213,"{'streetAndNumber': 'Boulevard Murat 15', 'postalCode': '75016', 'city': 'Paris', 'country': 'FRA'}"
newmotion,Paris,2750184,Type2,NewMotion,48.881529,2.471002,"{'streetAndNumber': 'DOMUS - Rue de Lisbonne 16', 'postalCode': '93562', 'city': 'Rosny-sous-Bois', 'country': 'FRA'}"
newmotion,Paris,2885645,Type2,Indigo,48.82679,2.233237,"{'streetAndNumber': ""Cours de l'Ile Seguin"", 'postalCode': '92100', 'city': 'Boulogne-Billancourt', 'country': 'FRA'}"
newmotion,Paris,2885705,Type2,Indigo,48.867905,2.330046,"{'streetAndNumber': 'Place Vendôme', 'postalCode': '75001', 'city': 'Paris', 'country': 'FRA'}"
newmotion,Paris,2657671,Domestic,Freshmile Charge,48.9835,2.2001,"{'streetAndNumber': 'Route Stratégique 4', 'postalCode': '95240', 'city': 'Cormeilles-en-Parisis', 'country': 'FRA'}"
newmotion,Paris,2570676,Domestic,Freshmile Charge,49.0025,2.15787,"{'streetAndNumber': 'Route de Pierrelaye 7', 'postalCode': '95220', 'city': 'Herblay-sur-Seine', 'country': 'FRA'}"
newmotion,Paris,2885690,Type2,Indigo,48.942425,2.2512,"{'streetAndNumber': 'Rue des Gobelins', 'postalCode': '95100', 'city': 'Argenteuil', 'country': 'FRA'}"
newmotion,Paris,2607514,Domestic,Freshmile Charge,49.0236,2.2521,"{'streetAndNumber': 'Rue du Château 156', 'postalCode': '95320', 'city': 'Saint-Leu-la-Forêt', 'country': 'FRA'}"
newmotion,Paris,2657670,Domestic,Freshmile Charge,48.7458,2.3543,"{'streetAndNumber': 'Avenue Robert Schuman 43', 'postalCode': '94150', 'city': 'Rungis', 'country': 'FRA'}"
newmotion,Paris,2885709,Type2,Indigo,48.829906,2.128247,"{'streetAndNumber': 'Rue de Versailles', 'postalCode': '78150', 'city': 'Le Chesnay-Rocquencourt', 'country': 'FRA'}"
newmotion,Paris,2656616,Domestic,SMOYS - Syndicat Mixte Orge Yvette Seine,48.706635,2.421827,"{'streetAndNumber': 'Avenue Henri Charon 2', 'postalCode': '91270', 'city': 'Vigneux-sur-Seine', 'country': 'FRA'}"
newmotion,Paris,2541313,Type2,NewMotion,48.843586,2.420028,"{'streetAndNumber': ""Chaussée de l'Étang 18"", 'postalCode': '94160', 'city': 'Saint-Mandé', 'country': 'FRA'}"
newmotion,Paris,2518866,TepcoCHAdeMO,Belib,48.870628,2.33321,"{'streetAndNumber': 'Boulevard des Capucines 7', 'postalCode': '75002', 'city': 'Paris', 'country': 'FRA'}"
newmotion,Paris,2554384,Domestic,Freshmile Charge,48.9613,2.1904,"{'streetAndNumber': 'Rue Jean Baptiste Carpeaux', 'postalCode': '95240', 'city': 'Cormeilles-en-Parisis', 'country': 'FRA'}"
newmotion,Paris,2554395,Domestic,Freshmile Charge,48.9966,2.1991,"{'streetAndNumber': 'Rue Vincent Van Gogh 3', 'postalCode': '95370', 'city': 'Montigny-lès-Cormeilles', 'country': 'FRA'}"
newmotion,Paris,2885644,Type2,Indigo,48.8652,2.30151,"{'streetAndNumber': 'Avenue George V', 'postalCode': '75008', 'city': 'Paris', 'country': 'FRA'}"
newmotion,Paris,2866954,TepcoCHAdeMO,Belib,48.8778,2.39182,"{'streetAndNumber': 'Rue de Crimée 14', 'postalCode': '75019', 'city': 'Paris', 'country': 'FRA'}"
newmotion,Paris,2795572,Type2,Virta,48.897216,2.218955,"{'streetAndNumber': '3 Place Marcel Paul', 'city': 'Nanterre', 'country': 'FRA'}"
newmotion,Paris,2795782,Type2,Virta,48.897216,2.218955,"{'streetAndNumber': '3 Place Marcel Paul', 'city': 'Nanterre', 'country': 'FRA'}"
newmotion,Paris,2795738,Type2,Virta,48.897216,2.218955,"{'streetAndNumber': '3 Place Marcel Paul', 'city': 'Nanterre', 'country': 'FRA'}"
newmotion,Paris,2795916,Type2,Virta,48.897216,2.218955,"{'streetAndNumber': '3 Place Marcel Paul', 'city': 'Nanterre', 'country': 'FRA'}"
newmotion,Paris,2554418,Domestic,Freshmile Charge,49.0193,2.24848,"{'streetAndNumber': 'Chemin des Avollées 12', 'postalCode': '95320', 'city': 'Saint-Leu-la-Forêt', 'country': 'FRA'}"
newmotion,Paris,2815389,Domestic,Effia Stationnement Vincennes,48.846542,2.454387,"{'streetAndNumber': 'Avenue des murs du parc', 'postalCode': '94300', 'city': 'Vincennes', 'country': 'FRA'}"
newmotion,Paris,2885643,Type2,Indigo,48.87291,2.32937,"{'streetAndNumber': 'Rue des Mathurins', 'postalCode': '75009', 'city': 'Paris', 'country': 'FRA'}"
newmotion,Paris,2885678,Type3,Indigo,48.8979,2.08819,"{'streetAndNumber': 'Rue de Pologne 63', 'postalCode': '78100', 'city': 'Saint-Germain-en-Laye', 'country': 'FRA'}"
newmotion,Paris,2795516,Type2,Marché International de Rungis,48.763277,2.355077,"{'streetAndNumber': 'Avenue du Viaduc 94550 Chevilly-Larue,', 'city': 'Rungis', 'country': 'FRA'}"
newmotion,Paris,2518861,TepcoCHAdeMO,Belib,48.847446,2.38804,"{'streetAndNumber': 'Boulevard Diderot 126', 'postalCode': '75012', 'city': 'Paris', 'country': 'FRA'}"
newmotion,Paris,2790581,Domestic,Communauté d’Agglomération Paris,48.839484,2.65555,"{'streetAndNumber': 'Promenade du 7e Art', 'postalCode': '77200', 'city': 'Torcy', 'country': 'FRA'}"
newmotion,Paris,2731251,Domestic,Freshmile Charge,48.9894,2.25775,"{'streetAndNumber': 'Rue du 18 Juin 16', 'postalCode': '95120', 'city': 'Ermont', 'country': 'FRA'}"
newmotion,Paris,2880295,Type2,NewMotion,48.76756,2.441716,"{'streetAndNumber': 'Avenue Henri Barbusse 84', 'postalCode': '94460', 'city': 'Valenton', 'country': 'FRA'}"
newmotion,Paris,2880296,Type2,NewMotion,48.76756,2.441716,"{'streetAndNumber': 'Avenue Henri Barbusse 84', 'postalCode': '94460', 'city': 'Valenton', 'country': 'FRA'}"
newmotion,Paris,2880294,Type2,NewMotion,48.76756,2.441716,"{'streetAndNumber': 'Avenue Henri Barbusse 84', 'postalCode': '94460', 'city': 'Valenton', 'country': 'FRA'}"
newmotion,Paris,2880297,Type2,NewMotion,48.76756,2.441716,"{'streetAndNumber': 'Avenue Henri Barbusse 84', 'postalCode': '94460', 'city': 'Valenton', 'country': 'FRA'}"
newmotion,Paris,2795509,Type2,Marché International de Rungis,48.75888,2.3597,"{'streetAndNumber': 'Avenue des Charentes 94150 Rungis', 'city': 'Rungis', 'country': 'FRA'}"
newmotion,Paris,2518876,TepcoCHAdeMO,Belib,48.846214,2.279884,"{'streetAndNumber': 'Avenue Emile Zola 18', 'postalCode': '75015', 'city': 'Paris', 'country': 'FRA'}"
newmotion,Paris,2570690,Domestic,Freshmile Charge,48.9843,2.22748,"{'streetAndNumber': 'Rue du Général Leclerc 108', 'postalCode': '95130', 'city': 'Franconville', 'country': 'FRA'}"
newmotion,Paris,2741116,Type2,NewMotion,48.948737,2.625397,"{'streetAndNumber': 'Avenue Jean Monnet 2', 'postalCode': '77270', 'city': 'Villeparisis', 'country': 'FRA'}"
newmotion,Paris,2554402,Domestic,Freshmile Charge,49.0022,2.27636,"{'streetAndNumber': 'Rue Flammarion 32', 'postalCode': '95600', 'city': 'Eaubonne', 'country': 'FRA'}"
newmotion,Paris,2906736,Type2,NewMotion,48.882119,2.068284,"{'streetAndNumber': ""zone d'activité Du Pince Loup ."", 'postalCode': '78112', 'city': 'Fourqueux', 'country': 'FRA'}"
newmotion,Paris,2887753,Domestic,Communauté d'agglomération Paris-Saclay,48.739605,2.222766,"{'streetAndNumber': ""Rue de l'Or Meté 17"", 'postalCode': '91430', 'city': 'Igny', 'country': 'FRA'}"
newmotion,Paris,2597715,TepcoCHAdeMO,Belib,48.865311,2.343436,"{'streetAndNumber': 'Rue Étienne Marcel 44', 'postalCode': '75002', 'city': 'Paris', 'country': 'FRA'}"
newmotion,Paris,2885636,Type2,Indigo,48.890533,2.252776,"{'streetAndNumber': 'Rue du Général Audran', 'postalCode': '92400', 'city': 'Courbevoie', 'country': 'FRA'}"
newmotion,Paris,2885617,Type2,Indigo,48.806835,2.130854,"{'streetAndNumber': 'Halles de Versailles', 'postalCode': '78000', 'city': 'Versailles', 'country': 'FRA'}"
newmotion,Paris,2770356,Domestic,Réseau SEY ma borne - Communauté Urbaine Grand Paris Seine & Oise,48.932545,2.042339,"{'streetAndNumber': 'Rue Jean Claude Mary', 'postalCode': '78300', 'city': 'Poissy', 'country': 'FRA'}"
newmotion,Paris,2518857,TepcoCHAdeMO,Belib,48.880421,2.398476,"{'streetAndNumber': 'Boulevard Sérurier 54', 'postalCode': '75019', 'city': 'Paris', 'country': 'FRA'}"
newmotion,Paris,2656630,Domestic,SMOYS - Syndicat Mixte Orge Yvette Seine,48.711296,2.486588,"{'streetAndNumber': 'Rue de Concy 57', 'postalCode': '91330', 'city': 'Yerres', 'country': 'FRA'}"
newmotion,Paris,2518863,TepcoCHAdeMO,Belib,48.889011,2.371768,"{'streetAndNumber': 'Rue Riquet 39', 'postalCode': '75019', 'city': 'Paris', 'country': 'FRA'}"
newmotion,Paris,2885647,Type2,Indigo,48.9681,2.285055,"{'streetAndNumber': 'Allée Pierre de Coubertin', 'postalCode': '95210', 'city': 'Saint-Gratien', 'country': 'FRA'}"
newmotion,Paris,2657674,Domestic,Freshmile Charge,48.9796,2.181,"{'streetAndNumber': 'Rue Marcellin Berthelot 2', 'postalCode': '95530', 'city': 'La Frette-sur-Seine', 'country': 'FRA'}"
newmotion,Paris,2620103,Type2,EV-Box,48.756986,1.982605,"{'streetAndNumber': 'Avenue des Frères Lumière 48', 'postalCode': '78190', 'city': 'Trappes', 'country': 'FRA'}"
newmotion,Paris,2554376,Domestic,Freshmile Charge,49.0211,2.23112,"{'streetAndNumber': 'Rue Eugène Vallerand 45', 'postalCode': '95150', 'city': 'Taverny', 'country': 'FRA'}"
newmotion,Paris,2597728,TepcoCHAdeMO,Belib,48.852459,2.341483,"{'streetAndNumber': 'Rue Danton 28', 'postalCode': '75006', 'city': 'Paris', 'country': 'FRA'}"
newmotion,Paris,2905664,Type2,Virta,48.8738,2.335,"{'streetAndNumber': '21 Rue Laffitte', 'city': 'PARIS', 'country': 'FRA'}"
newmotion,Paris,2885655,Type2,Indigo,48.873257,2.330813,"{'streetAndNumber': 'Boulevard Haussmann', 'postalCode': '75009', 'city': 'Paris', 'country': 'FRA'}"
newmotion,Paris,2730476,Domestic,SMOYS - Syndicat Mixte Orge Yvette Seine,48.739834,2.425833,"{'streetAndNumber': 'Place de la Gare 3', 'postalCode': '94290', 'city': 'Villeneuve-le-Roi', 'country': 'FRA'}"
newmotion,Paris,2656607,Domestic,SMOYS - Syndicat Mixte Orge Yvette Seine,48.739834,2.425833,"{'streetAndNumber': 'Place de la Gare 1', 'postalCode': '94290', 'city': 'Villeneuve-le-Roi', 'country': 'FRA'}"
newmotion,Paris,2597721,TepcoCHAdeMO,Belib,48.859184,2.273944,"{'streetAndNumber': 'Boulevard Emile Augier 12', 'postalCode': '75016', 'city': 'Paris', 'country': 'FRA'}"
newmotion,Paris,2867716,Domestic,Réseau SEY ma borne - Communauté Urbaine Grand Paris Seine & Oise,48.974777,2.049813,"{'streetAndNumber': 'Place de la Gare', 'postalCode': '78570', 'city': 'Andrésy', 'country': 'FRA'}"
newmotion,Paris,2770361,Domestic,Réseau SEY ma borne - Communauté Urbaine Grand Paris Seine & Oise,48.927132,2.042993,"{'streetAndNumber': 'Rue du 8 Mai 1945', 'postalCode': '78300', 'city': 'Poissy', 'country': 'FRA'}"
newmotion,Paris,2597719,TepcoCHAdeMO,Belib,48.853445,2.38688,"{'streetAndNumber': 'Boulevard Voltaire 206', 'postalCode': '75011', 'city': 'Paris', 'country': 'FRA'}"
newmotion,Paris,2868662,Type2,Virta,48.772413,2.347092,"{'streetAndNumber': 'Avenue du Général Leclerc', 'city': ""L'Haÿ-Les-Roses"", 'country': 'FRA'}"
newmotion,Paris,2868635,Type2,Virta,48.772413,2.347092,"{'streetAndNumber': 'Avenue du Général Leclerc', 'city': 'L’Haÿ-Les-Roses', 'country': 'FRA'}"
newmotion,Paris,2601891,Type2,NewMotion,48.81778,2.260195,"{'streetAndNumber': ""POUR RESIDENTS UNIQUEMENT - Rue d'Erevan 42"", 'postalCode': '92130', 'city': 'Issy-les-Moulineaux', 'country': 'FRA'}"
newmotion,Paris,2885679,Type2,Indigo,48.847404,2.29717,"{'streetAndNumber': 'Rue Frémicourt', 'postalCode': '75015', 'city': 'Paris', 'country': 'FRA'}"
newmotion,Paris,2609629,Type2,EV-Box,48.760981,2.285667,"{'streetAndNumber': 'Rue Alphonse Lavallée 4', 'postalCode': '92160', 'city': 'Châtenay-Malabry', 'country': 'FRA'}"
newmotion,Paris,2795513,Type2,Marché International de Rungis,48.75694,2.35164,"{'streetAndNumber': '1C Allée de Sète 94150 Rungis', 'city': 'Rungis', 'country': 'FRA'}"
newmotion,Paris,2554370,Domestic,Freshmile Charge,49.0107,2.238,"{'streetAndNumber': 'Avenue des Diablots 9', 'postalCode': '95320', 'city': 'Saint-Leu-la-Forêt', 'country': 'FRA'}"
newmotion,Paris,2597743,TepcoCHAdeMO,Belib,48.882718,2.319768,"{'streetAndNumber': 'Rue de Rome 81', 'postalCode': '75017', 'city': 'Paris', 'country': 'FRA'}"
newmotion,Paris,2885627,Type2,Indigo,48.85664,2.32717,"{'streetAndNumber': 'Rue de Montalembert', 'postalCode': '75007', 'city': 'Paris', 'country': 'FRA'}"
newmotion,Paris,2924511,Domestic,Freshmile Charge,48.8477,2.20974,"{'streetAndNumber': 'Avenue du Maréchal Foch 48', 'postalCode': '92210', 'city': 'Saint-Cloud', 'country': 'FRA'}"
newmotion,Paris,2868620,Type2,Virta FB,48.92118,2.37765,"{'streetAndNumber': 'Rue de Saint Denis', 'city': 'Aubervilliers', 'country': 'FRA'}"
newmotion,Paris,2570693,Domestic,Freshmile Charge,48.994,2.2338,"{'streetAndNumber': 'Rue Charles Burger 6', 'postalCode': '95130', 'city': 'Franconville', 'country': 'FRA'}"
newmotion,Paris,2570714,Domestic,Haute Vallée de Chevreuse,48.71864,1.993369,"{'streetAndNumber': 'Rue Bel air  3', 'postalCode': '78720', 'city': 'Saint-Forget', 'country': 'FRA'}"
newmotion,Paris,2900183,Type2,Virta,48.862825,2.347056,"{'streetAndNumber': 'Rue Turbigo', 'city': 'Paris', 'country': 'FRA'}"
newmotion,Paris,2554375,Domestic,Freshmile Charge,48.9913,2.26089,"{'streetAndNumber': 'Avenue de la 1ère Armée Française', 'postalCode': '95120', 'city': 'Ermont', 'country': 'FRA'}"
newmotion,Paris,2136269,Type2,NewMotion,48.801847,2.130447,"{'streetAndNumber': 'Mairie - Avenue de Paris 6', 'postalCode': '78000', 'city': 'Versailles', 'country': 'FRA'}"
newmotion,Paris,2607516,Domestic,Freshmile Charge,48.8976,2.11577,"{'streetAndNumber': 'Boulevard Carnot 120', 'postalCode': '78110', 'city': 'Le Vésinet', 'country': 'FRA'}"
newmotion,Paris,2790584,Domestic,Communauté d’Agglomération Paris,48.8429,2.582355,"{'streetAndNumber': 'Boulevard Newton 5', 'postalCode': '77420', 'city': 'Champs-sur-Marne', 'country': 'FRA'}"
newmotion,Paris,2790592,Domestic,Freshmile Charge,48.8035,2.1296,"{'streetAndNumber': ""Avenue de l'Europe"", 'postalCode': '78000', 'city': 'Versailles', 'country': 'FRA'}"
newmotion,Paris,2570709,Domestic,Haute Vallée de Chevreuse,48.733284,2.019443,"{'streetAndNumber': 'Rue de Port Royal  5', 'postalCode': '78470', 'city': 'Saint-Lambert', 'country': 'FRA'}"
newmotion,Paris,2554407,Domestic,Freshmile Charge,49.0179,2.1851,"{'streetAndNumber': ""Avenue de l'Égalité 6"", 'postalCode': '95250', 'city': 'Beauchamp', 'country': 'FRA'}"
newmotion,Paris,2554389,Domestic,Freshmile Charge,48.9715,2.25721,"{'streetAndNumber': 'Mail Henri Dunant', 'postalCode': '95110', 'city': 'Sannois', 'country': 'FRA'}"
newmotion,Paris,2518862,TepcoCHAdeMO,Belib,48.837055,2.259932,"{'streetAndNumber': 'Avenue Marcel Doret 4', 'postalCode': '75016', 'city': 'Paris', 'country': 'FRA'}"
newmotion,Paris,2570684,Domestic,Freshmile Charge,48.9797,2.27182,"{'streetAndNumber': 'Rue Jean Esprangle 8', 'postalCode': '95120', 'city': 'Ermont', 'country': 'FRA'}"
newmotion,Paris,2885704,Type2,Indigo,48.887085,2.173628,"{'streetAndNumber': 'Avenue Victor Hugo', 'postalCode': '92500', 'city': 'Rueil-Malmaison', 'country': 'FRA'}"
newmotion,Paris,2597697,TepcoCHAdeMO,Belib,48.878897,2.355064,"{'streetAndNumber': 'Rue la Fayette 137', 'postalCode': '75010', 'city': 'Paris', 'country': 'FRA'}"
newmotion,Paris,2762499,Domestic,Ze-Watt,48.781322,2.220149,"{'streetAndNumber': ""Avenue de l'Europe 2 Centre Commercial Vélizy 2"", 'postalCode': '78140', 'city': 'Vélizy-Villacoublay', 'country': 'FRA'}"
newmotion,Paris,2762535,Type2,Electric 55 Charging,48.799674,2.153577,"{'streetAndNumber': 'Rue Vauban', 'postalCode': '78000', 'city': 'Versailles', 'country': 'FRA'}"
newmotion,Paris,2518856,TepcoCHAdeMO,Belib,48.878799,2.368851,"{'streetAndNumber': 'Place du Colonel Fabien 9', 'postalCode': '75010', 'city': 'Paris', 'country': 'FRA'}"
newmotion,Paris,2868640,Type2,Virta,48.761555,2.446661,"{'streetAndNumber': 'Rue Louis Armand', 'city': 'Valenton', 'country': 'FRA'}"
newmotion,Paris,2868663,Type2,Virta,48.761555,2.446661,"{'streetAndNumber': 'Rue Louis Armand', 'city': 'Valenton', 'country': 'FRA'}"
newmotion,Paris,2883096,Domestic,Freshmile Charge,48.7626,2.66796,"{'streetAndNumber': 'Avenue du Général de Gaulle', 'postalCode': '77330', 'city': 'Ozoir-la-Ferrière', 'country': 'FRA'}"
newmotion,Paris,2815387,Domestic,Effia Stationnement Vincennes,48.846596,2.441186,"{'streetAndNumber': 'Avenue Pierre Brossolette 8', 'postalCode': '94300', 'city': 'Vincennes', 'country': 'FRA'}"
newmotion,Paris,2619423,Type2,EV-Box,49.029148,2.370046,"{'streetAndNumber': 'Avenue du Maréchal Foch 41', 'postalCode': '95460', 'city': 'Ézanville', 'country': 'FRA'}"
newmotion,Paris,2885683,Type2,Indigo,48.87083,2.30566,"{'streetAndNumber': 'Avenue des Champs Elysées 62', 'postalCode': '75008', 'city': 'Paris', 'country': 'FRA'}"
newmotion,Paris,2554360,Domestic,Freshmile Charge,49.0108,2.1996,"{'streetAndNumber': 'Avenue Pasteur 22', 'postalCode': '95250', 'city': 'Beauchamp', 'country': 'FRA'}"
newmotion,Paris,2770349,Domestic,Réseau SEY ma borne - Communauté Urbaine Grand Paris Seine & Oise,48.972015,1.983167,"{'streetAndNumber': 'Place Conte', 'postalCode': '78540', 'city': 'Vernouillet', 'country': 'FRA'}"
newmotion,Paris,2624022,Domestic,Reseau Alize Liberte - FR*V06,48.80813,2.240398,"{'streetAndNumber': 'Rue Banes 4', 'postalCode': '92190', 'city': 'Meudon', 'country': 'FRA'}"
newmotion,Paris,2885677,Type2,Indigo,48.880199,2.27609,"{'streetAndNumber': 'Place du Marché', 'postalCode': '92200', 'city': 'Neuilly-sur-Seine', 'country': 'FRA'}"
newmotion,Paris,2554374,Domestic,Freshmile Charge,48.99,2.1658,"{'streetAndNumber': ""Place de l'Appel du 18 Juin 1940"", 'postalCode': '95220', 'city': 'Herblay-sur-Seine', 'country': 'FRA'}"
newmotion,Paris,2656565,Domestic,SMOYS - Syndicat Mixte Orge Yvette Seine,48.715031,2.493237,"{'streetAndNumber': 'Rue de la Grange 4', 'postalCode': '91330', 'city': 'Yerres', 'country': 'FRA'}"
newmotion,Paris,2656578,Domestic,SMOYS - Syndicat Mixte Orge Yvette Seine,48.715858,2.458896,"{'streetAndNumber': 'Avenue Jean Jaurès 54', 'postalCode': '91560', 'city': 'Crosne', 'country': 'FRA'}"
newmotion,Paris,2541311,Type2,NewMotion,48.842752,2.418663,"{'streetAndNumber': 'Place Charles Digeon 6', 'postalCode': '94160', 'city': 'Saint-Mandé', 'country': 'FRA'}"
newmotion,Paris,2815390,Domestic,Effia Stationnement Vincennes,48.85148,2.436885,"{'streetAndNumber': 'Avenue de la République 123', 'postalCode': '94300', 'city': 'Vincennes', 'country': 'FRA'}"
newmotion,Paris,2554361,Domestic,Freshmile Charge,48.974,2.2053,"{'streetAndNumber': 'Rue Emy les Prés 27', 'postalCode': '95240', 'city': 'Cormeilles-en-Parisis', 'country': 'FRA'}"
newmotion,Paris,2815385,Domestic,Effia Stationnement Vincennes,48.847793,2.424313,"{'streetAndNumber': 'Rue Massue 29', 'postalCode': '94300', 'city': 'Vincennes', 'country': 'FRA'}"
newmotion,Paris,2885624,Type2,Indigo,48.895012,2.238045,"{'streetAndNumber': ""Allée de l'arche"", 'postalCode': '92400', 'city': 'Courbevoie', 'country': 'FRA'}"
newmotion,Paris,2699967,Type2,EV-Box,48.772961,2.504949,"{'streetAndNumber': 'Rue Marco Polo 14', 'postalCode': '94370', 'city': 'Sucy-en-Brie', 'country': 'FRA'}"
newmotion,Paris,2750186,Type2,NewMotion,48.88241,2.468967,"{'streetAndNumber': 'DOMUS - Rue de Lisbonne 16', 'postalCode': '93562', 'city': 'Rosny-sous-Bois', 'country': 'FRA'}"
newmotion,Paris,2901399,Domestic,Ville d'Avray,48.823693,2.196966,"{'streetAndNumber': 'Chemin Desvallières 15', 'postalCode': '92410', 'city': ""Ville-d'Avray"", 'country': 'FRA'}"
newmotion,Paris,2619888,Type2,NewMotion,48.8176,2.260248,"{'streetAndNumber': ""POUR RESIDENTS UNIQUEMENT - Rue d'Erevan 42"", 'postalCode': '92130', 'city': 'Issy-les-Moulineaux', 'country': 'FRA'}"
newmotion,Paris,2887850,Type2,Indigo,48.883344,2.259769,"{'streetAndNumber': 'Avenue de Madrid', 'postalCode': '92200', 'city': 'Neuilly-sur-Seine', 'country': 'FRA'}"
newmotion,Paris,2597739,TepcoCHAdeMO,Belib,48.840977,2.317465,"{'streetAndNumber': 'Boulevard de Vaugirard 43', 'postalCode': '75015', 'city': 'Paris', 'country': 'FRA'}"
newmotion,Paris,2887751,Domestic,Communauté d'agglomération Paris-Saclay,48.699745,2.226933,"{'streetAndNumber': 'Rue du Commandant Marin la Meslée 3', 'postalCode': '91140', 'city': 'Villebon-sur-Yvette', 'country': 'FRA'}"
newmotion,Paris,2597730,TepcoCHAdeMO,Belib,48.883282,2.286938,"{'streetAndNumber': 'Avenue de la Porte de Villiers 2', 'postalCode': '75017', 'city': 'Paris', 'country': 'FRA'}"
newmotion,Paris,2795860,Type2,Virta,48.897174,2.219429,"{'streetAndNumber': '3 Place Marcel Paul', 'city': 'Nanterre', 'country': 'FRA'}"
newmotion,Paris,2887756,Domestic,Communauté d'agglomération Paris-Saclay,48.700953,2.106596,"{'streetAndNumber': 'Route du Val Courcelle 6', 'postalCode': '91190', 'city': 'Gif-sur-Yvette', 'country': 'FRA'}"
newmotion,Paris,2554365,Domestic,Freshmile Charge,48.985,2.25677,"{'streetAndNumber': 'Rue Jean Jaurès 2', 'postalCode': '95120', 'city': 'Ermont', 'country': 'FRA'}"
newmotion,Paris,2815368,Type2,Freshmile Charge,48.9034,2.3682,"{'streetAndNumber': 'Avenue des Forgerons ', 'postalCode': '93300', 'city': 'Aubervilliers', 'country': 'FRA'}"
newmotion,Paris,2597737,TepcoCHAdeMO,Belib,48.841198,2.323891,"{'streetAndNumber': 'Boulevard Edgar Quinet 9', 'postalCode': '75014', 'city': 'Paris', 'country': 'FRA'}"
newmotion,Paris,2791694,Domestic,Réseau SEY ma borne,48.92778,2.12306,"{'streetAndNumber': 'Place du 11 novembre', 'postalCode': '78600', 'city': 'Le Mesnil-le-Roi', 'country': 'FRA'}"
newmotion,Paris,2770363,Domestic,Réseau SEY ma borne - Communauté Urbaine Grand Paris Seine & Oise,48.993595,2.094629,"{'streetAndNumber': 'Place Jean Moulin', 'postalCode': '78700', 'city': 'Conflans-Sainte-Honorine', 'country': 'FRA'}"
newmotion,Paris,2868670,Type2,Virta,48.730175,2.240548,"{'streetAndNumber': 'Rue du Pileu', 'city': 'Massy', 'country': 'FRA'}"
newmotion,Paris,2597740,TepcoCHAdeMO,Belib,48.885689,2.297463,"{'streetAndNumber': 'Avenue Gourgaud 4', 'postalCode': '75017', 'city': 'Paris', 'country': 'FRA'}"
newmotion,Paris,2885662,Type2,Indigo,48.876831,2.345921,"{'streetAndNumber': 'Rue Rochambeau', 'postalCode': '75009', 'city': 'Paris', 'country': 'FRA'}"
newmotion,Paris,2554396,Domestic,Freshmile Charge,48.9976,2.2444,"{'streetAndNumber': 'Rue André Guillaumie 1', 'postalCode': '95130', 'city': 'Le Plessis-Bouchard', 'country': 'FRA'}"
newmotion,Paris,2518869,TepcoCHAdeMO,Belib,48.834084,2.405248,"{'streetAndNumber': 'Avenue du General Dodds 3', 'postalCode': '75012', 'city': 'Paris', 'country': 'FRA'}"
newmotion,Paris,2623874,Domestic,Communauté d’Agglomération Paris,48.811568,2.621933,"{'streetAndNumber': 'Place Pierre Mendès France', 'postalCode': '77184', 'city': 'Émerainville', 'country': 'FRA'}"
newmotion,Paris,2478379,Domestic,Effia,48.869909,2.309988,"{'streetAndNumber': 'Avenue Franklin Roosevelt', 'postalCode': '75008', 'city': 'Paris', 'country': 'FRA'}"
newmotion,Paris,2770395,Domestic,Réseau SEY ma borne,48.879125,2.112344,"{'streetAndNumber': 'Rue de Paris 10', 'postalCode': '78560', 'city': 'Le Port-Marly', 'country': 'FRA'}"
newmotion,Paris,2570671,Domestic,Freshmile Charge,48.998,2.1449,"{'streetAndNumber': 'Chemin de Chennevières', 'postalCode': '95220', 'city': 'Herblay-sur-Seine', 'country': 'FRA'}"
newmotion,Paris,2518852,TepcoCHAdeMO,Belib,48.881168,2.313751,"{'streetAndNumber': 'Boulevard de Courcelles 12', 'postalCode': '75017', 'city': 'Paris', 'country': 'FRA'}"
newmotion,Paris,2623879,Domestic,Communauté d’Agglomération Paris,48.856292,2.626824,"{'streetAndNumber': 'Place Gaston Menier', 'postalCode': '77186', 'city': 'Noisiel', 'country': 'FRA'}"
newmotion,Paris,2873195,Type2,NewMotion,48.771963,1.990635,"{'streetAndNumber': ""Avenue de l'Armée Leclerc 25"", 'postalCode': '78190', 'city': 'Trappes', 'country': 'FRA'}"
newmotion,Paris,2873994,Type2,NewMotion,48.771963,1.990635,"{'streetAndNumber': ""Avenue de l'Armée Leclerc 25"", 'postalCode': '78190', 'city': 'Trappes', 'country': 'FRA'}"
newmotion,Paris,2873196,Type2,NewMotion,48.771963,1.990635,"{'streetAndNumber': ""Avenue de l'Armée Leclerc 25"", 'postalCode': '78190', 'city': 'Trappes', 'country': 'FRA'}"
newmotion,Paris,2626104,Domestic,Communauté d’Agglomération Paris,48.83073,2.588862,"{'streetAndNumber': 'Avenue Robert Schuman 1', 'postalCode': '77184', 'city': 'Émerainville', 'country': 'FRA'}"
newmotion,Paris,2477777,TepcoCHAdeMO,Corri-Door,48.828954,2.6432,"{'streetAndNumber': 'Rond-Point Rocca Secca', 'postalCode': '77183', 'city': 'Croissy-Beaubourg', 'country': 'FRA'}"
newmotion,Paris,2623860,Domestic,Communauté d’Agglomération Paris,48.821413,2.644569,"{'streetAndNumber': 'Rue des Vieilles Vignes', 'postalCode': '77183', 'city': 'Croissy-Beaubourg', 'country': 'FRA'}"
newmotion,Paris,2478023,Domestic,Eco Charge 77,49.017696,2.591242,"{'streetAndNumber': 'Rue du Chapeau', 'postalCode': '77990', 'city': 'Le Mesnil-Amelot', 'country': 'FRA'}"
newmotion,Paris,2885708,Type2,Indigo,48.929562,2.358735,"{'streetAndNumber': 'Rue Danielle Casanova', 'postalCode': '93200', 'city': 'Saint-Denis', 'country': 'FRA'}"
newmotion,Paris,2815315,TepcoCHAdeMO,Belib,48.89311,2.34066,"{'streetAndNumber': 'Rue Ordener 110', 'postalCode': '75018', 'city': 'Paris', 'country': 'FRA'}"
newmotion,Paris,2626657,TepcoCHAdeMO,Belib,48.839947,2.397822,"{'streetAndNumber': 'Rue Docteur Goujon 5', 'postalCode': '75012', 'city': 'Paris', 'country': 'FRA'}"
newmotion,Paris,2885646,Type2,Indigo,48.85289,2.343349,"{'streetAndNumber': 'Rue Francisque Gay', 'postalCode': '75005', 'city': 'Paris', 'country': 'FRA'}"
newmotion,Paris,2770334,Domestic,Réseau SEY ma borne - Communauté Urbaine Grand Paris Seine & Oise,48.960304,2.069515,"{'streetAndNumber': 'Place de la Jamais Contente', 'postalCode': '78260', 'city': 'Achères', 'country': 'FRA'}"
newmotion,Paris,2597714,TepcoCHAdeMO,Belib,48.88472,2.369961,"{'streetAndNumber': 'Avenue de Flandre 10', 'postalCode': '75019', 'city': 'Paris', 'country': 'FRA'}"
newmotion,Paris,2597716,TepcoCHAdeMO,Belib,48.84477,2.35242,"{'streetAndNumber': 'Rue Monge 55', 'postalCode': '75005', 'city': 'Paris', 'country': 'FRA'}"
newmotion,Paris,2656621,Domestic,SMOYS - Syndicat Mixte Orge Yvette Seine,48.722122,2.470239,"{'streetAndNumber': 'Rue du Carnaval 3', 'postalCode': '91560', 'city': 'Crosne', 'country': 'FRA'}"
newmotion,Paris,2623870,Type3,Communauté d’Agglomération Paris,48.835238,2.589675,"{'streetAndNumber': 'Rue Albert Einstein 17', 'postalCode': '77420', 'city': 'Champs-sur-Marne', 'country': 'FRA'}"
newmotion,Paris,2885673,Type2,Indigo,48.884785,2.286776,"{'streetAndNumber': ""Boulevard de l'Yser"", 'postalCode': '75017', 'city': 'Paris', 'country': 'FRA'}"
newmotion,Paris,2656572,Domestic,SMOYS - Syndicat Mixte Orge Yvette Seine,48.719181,2.492088,"{'streetAndNumber': 'Rue du Mont Griffon 3', 'postalCode': '91330', 'city': 'Yerres', 'country': 'FRA'}"
newmotion,Paris,2791578,Domestic,Réseau SEY ma borne,48.871881,2.0993,"{'streetAndNumber': 'Rue de Fontenelle 12', 'postalCode': '78160', 'city': 'Marly-le-Roi', 'country': 'FRA'}"
newmotion,Paris,2887772,Domestic,Communauté d'agglomération Paris-Saclay,48.732231,2.221078,"{'streetAndNumber': 'Rue Jules Ferry 35', 'postalCode': '91430', 'city': 'Igny', 'country': 'FRA'}"
newmotion,Paris,2594662,Type2,NewMotion,48.846984,2.416711,"{'streetAndNumber': 'Avenue Gallieni 182', 'postalCode': '94160', 'city': 'Saint-Mandé', 'country': 'FRA'}"
newmotion,Paris,2795515,Type2,Marché International de Rungis,48.7611,2.349,"{'streetAndNumber': 'Avznue du Lyonnais', 'city': 'RUNGIS', 'country': 'FRA'}"
newmotion,Paris,2570716,Domestic,Haute Vallée de Chevreuse,48.703298,2.071103,"{'streetAndNumber': 'Rue Ditte 5', 'postalCode': '78470', 'city': 'Saint-Rémy-lès-Chevreuse', 'country': 'FRA'}"
newmotion,Paris,2885635,Type2,Indigo,48.832296,2.377649,"{'streetAndNumber': 'Rue Emile Durkheim', 'postalCode': '75013', 'city': 'Paris', 'country': 'FRA'}"
newmotion,Paris,2762509,Domestic,Ze-Watt,48.990717,2.523322,"{'streetAndNumber': 'Rue des Buissons 30 D TERMINAL COOK', 'postalCode': '95700', 'city': 'Roissy-en-France', 'country': 'FRA'}"
newmotion,Paris,2885650,Type3,Indigo,48.891201,2.24104,"{'streetAndNumber': 'Rond-Point de la Défense 13', 'postalCode': '92400', 'city': 'Courbevoie', 'country': 'FRA'}"
newmotion,Paris,2597692,TepcoCHAdeMO,Belib,48.835709,2.286912,"{'streetAndNumber': 'Rue Desnouettes 55', 'postalCode': '75015', 'city': 'Paris', 'country': 'FRA'}"
newmotion,Paris,2795511,Type2,Marché International de Rungis,48.765,2.35172,"{'streetAndNumber': ""Quai de l'Île de France 94550 Chevilly-Larue"", 'city': 'Rungis', 'country': 'FRA'}"
newmotion,Paris,2815490,Type2,Electric 55 Charging,48.800833,2.129056,"{'streetAndNumber': 'Avenue du Général de Gaulle 1', 'postalCode': '78000', 'city': 'Versailles', 'country': 'FRA'}"
newmotion,Paris,2656570,Domestic,SMOYS - Syndicat Mixte Orge Yvette Seine,48.707657,2.49572,"{'streetAndNumber': 'Rue Marceau Balliot 12', 'postalCode': '91330', 'city': 'Yerres', 'country': 'FRA'}"
newmotion,Paris,2518874,TepcoCHAdeMO,Belib,48.857094,2.403802,"{'streetAndNumber': 'Rue des Pyrénées 127', 'postalCode': '75020', 'city': 'Paris', 'country': 'FRA'}"
newmotion,Paris,2790567,TepcoCHAdeMO,Corri-Door,48.900778,2.374828,"{'streetAndNumber': 'Boulevard Périphérique intérieur', 'postalCode': '75019', 'city': 'Paris', 'country': 'FRA'}"
newmotion,Paris,2905666,Type2,Virta,48.8511,2.4865,"{'streetAndNumber': '21 Rue Roger Salengro', 'city': 'Fontenay Sous Bois', 'country': 'FRA'}"
newmotion,Paris,2885649,Type2,Indigo,48.869366,2.284448,"{'streetAndNumber': 'Avenue Victor Hugo', 'postalCode': '75016', 'city': 'Paris', 'country': 'FRA'}"
newmotion,Paris,2815394,Domestic,Réseau SEY ma borne,48.855886,2.019403,"{'streetAndNumber': 'Rue Charles de Gaulle', 'postalCode': '78860', 'city': 'Saint-Nom-la-Bretèche', 'country': 'FRA'}"
newmotion,Paris,2523111,Domestic,Freshmile Charge,48.9986,2.22189,"{'streetAndNumber': 'Rue des Pommiers Saulniers', 'postalCode': '95130', 'city': 'Franconville', 'country': 'FRA'}"
newmotion,Paris,2885665,Type2,Indigo,48.850849,2.375396,"{'streetAndNumber': 'Avenue Ledru-Rollin', 'postalCode': '75012', 'city': 'Paris', 'country': 'FRA'}"
newmotion,Paris,2597720,TepcoCHAdeMO,Belib,48.846761,2.268339,"{'streetAndNumber': 'Rue Chardon Lagache 2', 'postalCode': '75016', 'city': 'Paris', 'country': 'FRA'}"
newmotion,Paris,2657689,Domestic,Freshmile Charge,48.7419,2.35005,"{'streetAndNumber': 'Rue des Solets 113', 'postalCode': '94150', 'city': 'Rungis', 'country': 'FRA'}"
newmotion,Paris,2554424,Domestic,Freshmile Charge,49.0194,2.1552,"{'streetAndNumber': 'Rue des Osiers 2', 'postalCode': '95480', 'city': 'Pierrelaye', 'country': 'FRA'}"
newmotion,Paris,2478393,Domestic,Effia,48.889439,2.513454,"{'streetAndNumber': 'Allée Clémencet', 'postalCode': '93340', 'city': 'Le Raincy', 'country': 'FRA'}"
newmotion,Paris,2617119,Type2,EV-Box,48.974213,1.996062,"{'streetAndNumber': 'Rue de la Grosse Pierre 29', 'postalCode': '78540', 'city': 'Vernouillet', 'country': 'FRA'}"
newmotion,Paris,2570696,Domestic,Freshmile Charge,49.0057,2.2484,"{'streetAndNumber': 'Rue Gabriel Fauré 27', 'postalCode': '95320', 'city': 'Saint-Leu-la-Forêt', 'country': 'FRA'}"
newmotion,Paris,2597733,TepcoCHAdeMO,Belib,48.88264,2.335728,"{'streetAndNumber': 'Boulevard de Clichy 31', 'postalCode': '75009', 'city': 'Paris', 'country': 'FRA'}"
newmotion,Paris,2887755,Domestic,Communauté d'agglomération Paris-Saclay,48.713703,2.259299,"{'streetAndNumber': 'Avenue de Stalingrad 76', 'postalCode': '91120', 'city': 'Palaiseau', 'country': 'FRA'}"
newmotion,Paris,2887750,Domestic,Communauté d'agglomération Paris-Saclay,48.730614,2.168417,"{'streetAndNumber': 'Rue Robert Thomas 15', 'postalCode': '91400', 'city': 'Saclay', 'country': 'FRA'}"
newmotion,Paris,2887783,Domestic,Communauté d'agglomération Paris-Saclay,48.735409,2.257871,"{'streetAndNumber': 'Rue Joliot Curie 9', 'postalCode': '91300', 'city': 'Massy', 'country': 'FRA'}"
newmotion,Paris,2894675,Domestic,Ville de Garches,48.845822,2.187882,"{'streetAndNumber': 'Rue de Suresnes 10', 'postalCode': '92380', 'city': 'Garches', 'country': 'FRA'}"
newmotion,Paris,2518854,TepcoCHAdeMO,Belib,48.82085,2.343626,"{'streetAndNumber': ""Rue de l'Amiral Mouchez 77"", 'postalCode': '75013', 'city': 'Paris', 'country': 'FRA'}"
newmotion,Paris,2750182,Type2,NewMotion,48.882432,2.468963,"{'streetAndNumber': 'DOMUS - Rue de Lisbonne 16', 'postalCode': '93562', 'city': 'Rosny-sous-Bois', 'country': 'FRA'}"
newmotion,Paris,2750185,Type2,NewMotion,48.882432,2.468963,"{'streetAndNumber': 'DOMUS - Rue de Lisbonne 16', 'postalCode': '93562', 'city': 'Rosny-sous-Bois', 'country': 'FRA'}"
newmotion,Paris,2887771,Domestic,Communauté d'agglomération Paris-Saclay,48.696949,2.159423,"{'streetAndNumber': 'Rue Charles de Gaulle 64', 'postalCode': '91440', 'city': 'Bures-sur-Yvette', 'country': 'FRA'}"
newmotion,Paris,2866953,TepcoCHAdeMO,Belib,48.865788,2.342244,"{'streetAndNumber': 'Rue Étienne Marcel 52', 'postalCode': '75002', 'city': 'Paris', 'country': 'FRA'}"
newmotion,Paris,2795733,Type2,Virta,48.897151,2.21948,"{'streetAndNumber': '3 Place Marcel Paul', 'city': 'Nanterre', 'country': 'FRA'}"
newmotion,Paris,2887762,Domestic,Communauté d'agglomération Paris-Saclay,48.714664,2.142571,"{'streetAndNumber': 'Rue du Relais de Poste 21', 'postalCode': '91190', 'city': 'Saint-Aubin', 'country': 'FRA'}"
newmotion,Paris,2518865,TepcoCHAdeMO,Belib,48.826504,2.343366,"{'streetAndNumber': 'Rue de Tolbiac 234', 'postalCode': '75013', 'city': 'Paris', 'country': 'FRA'}"
newmotion,Paris,2925183,Domestic,Driveco - LM,48.799693,2.00914,"{'streetAndNumber': 'Avenue Fritz Lang Zac De La Croix Bonnet', 'postalCode': '78390', 'city': ""Bois-d'Arcy"", 'country': 'FRA'}"
newmotion,Paris,2609615,Type2,EV-Box,48.760682,2.285657,"{'streetAndNumber': 'Rue Alphonse Lavallée 6', 'postalCode': '92160', 'city': 'Châtenay-Malabry', 'country': 'FRA'}"
newmotion,Paris,2554382,Domestic,Freshmile Charge,49.0223,2.1413,"{'streetAndNumber': 'Rue Emile Zola 130', 'postalCode': '95480', 'city': 'Pierrelaye', 'country': 'FRA'}"
newmotion,Paris,2791573,Domestic,Réseau SEY ma borne,48.860947,2.123419,"{'streetAndNumber': 'Rue Saint Michel', 'postalCode': '78430', 'city': 'Louveciennes', 'country': 'FRA'}"
newmotion,Paris,2597724,TepcoCHAdeMO,Belib,48.865358,2.377939,"{'streetAndNumber': 'Rue Saint-Maur 94', 'postalCode': '75011', 'city': 'Paris', 'country': 'FRA'}"
newmotion,Paris,2721395,Domestic,Freshmile Charge,48.9973,2.25854,"{'streetAndNumber': 'Rue du Maréchal Joffre 3', 'postalCode': '95120', 'city': 'Ermont', 'country': 'FRA'}"
newmotion,Paris,2885711,Type2,Indigo,48.83329,2.473018,"{'streetAndNumber': 'Avenue Watteau 58', 'postalCode': '94130', 'city': 'Nogent-sur-Marne', 'country': 'FRA'}"
newmotion,Paris,2887787,Domestic,Communauté d'agglomération Paris-Saclay,48.725075,2.272193,"{'streetAndNumber': 'Rue Louis Antoine de Bougainville', 'postalCode': '91300', 'city': 'Massy', 'country': 'FRA'}"
newmotion,Paris,2761695,Type2,NewMotion,48.948947,2.625027,"{'streetAndNumber': 'Avenue Jean Monnet 2', 'postalCode': '77270', 'city': 'Villeparisis', 'country': 'FRA'}"
newmotion,Paris,2492933,Domestic,Effia,48.837909,2.317754,"{'streetAndNumber': 'Place des Cinq martyrs du lycée Buffon 5', 'postalCode': '75015', 'city': 'Paris', 'country': 'FRA'}"
newmotion,Paris,2619890,Type2,NewMotion,48.817759,2.260315,"{'streetAndNumber': ""POUR RESIDENTS UNIQUEMENT - Rue d'Erevan 42"", 'postalCode': '92130', 'city': 'Issy-les-Moulineaux', 'country': 'FRA'}"
newmotion,Paris,2597700,TepcoCHAdeMO,Belib,48.849911,2.307126,"{'streetAndNumber': 'Avenue de Saxe 10', 'postalCode': '75007', 'city': 'Paris', 'country': 'FRA'}"
newmotion,Paris,2914496,Type2,LastMileSolutions,48.835423,2.253021,"{'streetAndNumber': '37 rue Marcel Dassault 92100', 'postalCode': 'np', 'city': 'Boulogne Billancourt', 'country': 'FRA'}"
newmotion,Paris,2885640,Type2,Indigo,48.838779,2.276305,"{'streetAndNumber': 'Rue Leblanc', 'postalCode': '75015', 'city': 'Paris', 'country': 'FRA'}"
newmotion,Paris,2478049,Domestic,Eco Charge 77,48.900551,2.672179,"{'streetAndNumber': 'Place de Bordeaux', 'postalCode': '77410', 'city': 'Villevaudé', 'country': 'FRA'}"
newmotion,Paris,2597727,TepcoCHAdeMO,Belib,48.882794,2.382705,"{'streetAndNumber': 'Place Armand Carrel 4', 'postalCode': '75019', 'city': 'Paris', 'country': 'FRA'}"
newmotion,Paris,2790585,Domestic,Communauté d’Agglomération Paris,48.837464,2.592808,"{'streetAndNumber': 'Rue Galilée 13', 'postalCode': '77420', 'city': 'Champs-sur-Marne', 'country': 'FRA'}"
newmotion,Paris,2523078,Domestic,Freshmile Charge,49.0132,2.25216,"{'streetAndNumber': 'Rue de Paris 111', 'postalCode': '95320', 'city': 'Saint-Leu-la-Forêt', 'country': 'FRA'}"
newmotion,Paris,2751565,Type2,Freshmile Charge,48.8565,2.34961,"{'streetAndNumber': 'Quai de Gesvres 6', 'postalCode': '75004', 'city': 'Paris', 'country': 'FRA'}"
newmotion,Paris,2523097,Domestic,Freshmile Charge,48.851,2.34101,"{'streetAndNumber': ""Rue de l'École de Médecine 21"", 'postalCode': '75006', 'city': 'Paris', 'country': 'FRA'}"
newmotion,Paris,2770336,Domestic,Réseau SEY ma borne - Communauté Urbaine Grand Paris Seine & Oise,49.005157,2.11628,"{'streetAndNumber': 'Place de la Liberté', 'postalCode': '78700', 'city': 'Conflans-Sainte-Honorine', 'country': 'FRA'}"
newmotion,Paris,2885638,Type2,Indigo,48.822971,2.299385,"{'streetAndNumber': 'Boulevard Charles de Gaulle', 'postalCode': '92240', 'city': 'Malakoff', 'country': 'FRA'}"
newmotion,Paris,2885632,Type2,Indigo,48.858101,2.27517,"{'streetAndNumber': 'Rue de Passy', 'postalCode': '75016', 'city': 'Paris', 'country': 'FRA'}"
newmotion,Paris,2623962,Domestic,Freshmile Charge,49.0047,2.30075,"{'streetAndNumber': ""Rue de l'Église 5"", 'postalCode': '95580', 'city': 'Andilly', 'country': 'FRA'}"
newmotion,Paris,2815363,Domestic,Freshmile Charge,48.7808,2.44743,"{'streetAndNumber': 'Rue Jean Gabin 8', 'postalCode': '94000', 'city': 'Créteil', 'country': 'FRA'}"
newmotion,Paris,2699966,Type2,EV-Box,48.772934,2.505068,"{'streetAndNumber': 'Rue Marco Polo 14', 'postalCode': '94370', 'city': 'Sucy-en-Brie', 'country': 'FRA'}"
newmotion,Paris,2810082,Type2,NewMotion,48.843204,2.418884,"{'streetAndNumber': 'Place Charles Digeon 10', 'postalCode': '94160', 'city': 'Saint-Mandé', 'country': 'FRA'}"
newmotion,Paris,2887790,Domestic,Communauté d'agglomération Paris-Saclay,48.741585,2.226447,"{'streetAndNumber': 'Rue Ambroise Croizat 1', 'postalCode': '91430', 'city': 'Igny', 'country': 'FRA'}"
newmotion,Paris,2885696,Type2,Indigo,48.854099,2.331784,"{'streetAndNumber': 'Boulevard Saint-Germain', 'postalCode': '75006', 'city': 'Paris', 'country': 'FRA'}"
newmotion,Paris,2597704,TepcoCHAdeMO,Belib,48.855667,2.354089,"{'streetAndNumber': 'Place Saint-Gervais 4', 'postalCode': '75004', 'city': 'Paris', 'country': 'FRA'}"
newmotion,Paris,2790560,TepcoCHAdeMO,Corri-Door,48.9005,2.37341,"{'streetAndNumber': 'Boulevard Périphérique extérieur', 'postalCode': '75019', 'city': 'Paris', 'country': 'FRA'}"
newmotion,Paris,2554369,Domestic,Freshmile Charge,49.0258,2.2215,"{'streetAndNumber': 'Place de la Gare 2', 'postalCode': '95150', 'city': 'Taverny', 'country': 'FRA'}"
newmotion,Paris,2885684,Type2,Indigo,48.831402,2.24171,"{'streetAndNumber': 'Rue du Vieux Pont de Sèvres', 'postalCode': '92100', 'city': 'Boulogne-Billancourt', 'country': 'FRA'}"
newmotion,Paris,2523092,Domestic,Freshmile Charge,49.0019,2.23634,"{'streetAndNumber': 'Rue Charles de Gaulle', 'postalCode': '95130', 'city': 'Le Plessis-Bouchard', 'country': 'FRA'}"
newmotion,Paris,2770338,Domestic,Réseau SEY ma borne - Communauté Urbaine Grand Paris Seine & Oise,48.946064,2.02504,"{'streetAndNumber': 'Avenue Vanderbilt', 'postalCode': '78955', 'city': 'Carrières-sous-Poissy', 'country': 'FRA'}"
newmotion,Paris,2597710,TepcoCHAdeMO,Belib,48.854057,2.34556,"{'streetAndNumber': 'Quai du Marché Neuf 4', 'postalCode': '75001', 'city': 'Paris', 'country': 'FRA'}"
newmotion,Paris,2612938,TepcoCHAdeMO,Belib,48.868511,2.295469,"{'streetAndNumber': ""Avenue d'Iéna 37"", 'postalCode': '75016', 'city': 'Paris', 'country': 'FRA'}"
newmotion,Paris,2883086,Domestic,Freshmile Charge,48.756,2.17064,"{'streetAndNumber': ""Route d'Orsay 2"", 'postalCode': '91400', 'city': 'Saclay', 'country': 'FRA'}"
newmotion,Paris,2624023,Domestic,Reseau Alize Liberte - FR*V06,48.787786,2.227534,"{'streetAndNumber': 'Rue Saint-Exupéry 1', 'postalCode': '92360', 'city': 'Meudon', 'country': 'FRA'}"
newmotion,Paris,2614039,Type2,EV-Box,48.908649,2.344593,"{'streetAndNumber': 'Avenue Michelet 57', 'postalCode': '93400', 'city': 'Saint-Ouen', 'country': 'FRA'}"
newmotion,Paris,2554393,Domestic,Freshmile Charge,48.9582,2.1973,"{'streetAndNumber': 'Avenue des Frères Lumière 3', 'postalCode': '95240', 'city': 'Cormeilles-en-Parisis', 'country': 'FRA'}"
newmotion,Paris,2861665,Type2,Concessionnaires Fiat Chrysler Automobiles,48.721328,2.283866,"{'streetAndNumber': 'Avenue du Maréchal Juin 13', 'postalCode': '91300', 'city': 'Massy', 'country': 'FRA'}"
newmotion,Paris,2791577,Domestic,Réseau SEY ma borne,48.86836,2.096699,"{'streetAndNumber': 'Place du Général de Gaulle', 'postalCode': '78160', 'city': 'Marly-le-Roi', 'country': 'FRA'}"
newmotion,Paris,2619425,Type2,EV-Box,48.890333,2.26428,"{'streetAndNumber': 'Boulevard de la Saussaye 13', 'postalCode': '92200', 'city': 'Neuilly-sur-Seine', 'country': 'FRA'}"
newmotion,Paris,2394876,Type2,Freshmile Charge,48.8707,2.22496,"{'streetAndNumber': 'avenue du Général de Gaulle 26', 'postalCode': '92150', 'city': 'Suresnes', 'country': 'FRA'}"
newmotion,Paris,2883097,Domestic,Freshmile Charge,48.7843,2.0447,"{'streetAndNumber': 'Rue Joël le Theule 1', 'postalCode': '78180', 'city': 'Montigny-le-Bretonneux', 'country': 'FRA'}"
newmotion,Paris,2597746,TepcoCHAdeMO,Belib,48.876162,2.286403,"{'streetAndNumber': 'Avenue de la Grande Armée', 'postalCode': '75016', 'city': 'Paris', 'country': 'FRA'}"
newmotion,Paris,2885682,Type2,Indigo,48.836201,2.70781,"{'streetAndNumber': 'Boulevard Pierre Mendes', 'postalCode': '77600', 'city': 'Bussy-Saint-Georges', 'country': 'FRA'}"
newmotion,Paris,2887775,Domestic,Communauté d'agglomération Paris-Saclay,48.73232,2.292326,"{'streetAndNumber': 'Avenue du Noyer Lambert 10', 'postalCode': '91300', 'city': 'Massy', 'country': 'FRA'}"
newmotion,Paris,2623868,Domestic,Communauté d’Agglomération Paris,48.826523,2.632065,"{'streetAndNumber': 'Rue Pelloutier 7', 'postalCode': '77183', 'city': 'Croissy-Beaubourg', 'country': 'FRA'}"
newmotion,Paris,2570706,Domestic,Freshmile Charge,49.0022,2.23283,"{'streetAndNumber': 'Rue Albert Alline 33', 'postalCode': '95130', 'city': 'Le Plessis-Bouchard', 'country': 'FRA'}"
newmotion,Paris,2570717,Domestic,Haute Vallée de Chevreuse,48.726621,2.049655,"{'streetAndNumber': 'Route des Buissons 2', 'postalCode': '78470', 'city': 'Milon-la-Chapelle', 'country': 'FRA'}"
newmotion,Paris,2570704,Domestic,Freshmile Charge,48.9898,2.26261,"{'streetAndNumber': 'Rue de la Halte 43', 'postalCode': '95120', 'city': 'Ermont', 'country': 'FRA'}"
newmotion,Paris,2885692,Type2,Indigo,48.871825,2.30007,"{'streetAndNumber': 'Avenue des Champs Elysées 103', 'postalCode': '75008', 'city': 'Paris', 'country': 'FRA'}"
newmotion,Paris,2611804,Type2,NewMotion,48.801671,2.130498,"{'streetAndNumber': 'Avenue de Paris 6', 'postalCode': '78000', 'city': 'Versailles', 'country': 'FRA'}"
newmotion,Paris,2607522,Domestic,Freshmile Charge,48.8944,2.1347,"{'streetAndNumber': 'Boulevard Carnot 60', 'postalCode': '78110', 'city': 'Le Vésinet', 'country': 'FRA'}"
newmotion,Paris,2623912,Domestic,Reseau Alize Liberte - Ville de Montrouge,48.812693,2.322877,"{'streetAndNumber': 'Place Jules Ferry 41', 'postalCode': '92120', 'city': 'Montrouge', 'country': 'FRA'}"
newmotion,Paris,2657682,Domestic,Freshmile Charge,48.7465,2.35582,"{'streetAndNumber': 'Avenue Robert Schuman', 'postalCode': '94150', 'city': 'Rungis', 'country': 'FRA'}"
newmotion,Paris,2762498,Domestic,Ze-Watt,48.992275,2.522731,"{'streetAndNumber': 'Rue des Buissons 30 B BALI MARKET', 'postalCode': '95700', 'city': 'Roissy-en-France', 'country': 'FRA'}"
newmotion,Paris,2790580,Domestic,Communauté d’Agglomération Paris,48.806547,2.617522,"{'streetAndNumber': 'Place Auribault 2', 'postalCode': '77340', 'city': 'Pontault-Combault', 'country': 'FRA'}"
newmotion,Paris,2770343,Domestic,Réseau SEY ma borne - Communauté Urbaine Grand Paris Seine & Oise,48.947636,2.024577,"{'streetAndNumber': 'Avenue du Port', 'postalCode': '78955', 'city': 'Carrières-sous-Poissy', 'country': 'FRA'}"
